{"type":"FeatureCollection","features":[{"type":"Feature","properties":{"name":"Parque Guarani","kind":"bairro"},"geometry":{"type":"Point","coordinates":[-48.8059164,-26.361441300000003]}},{"type":"Feature","properties":{"name":"Ulysses Guimarães","kind":"bairro"},"geometry":{"type":"Point","coordinates":[-48.792094,-26.3268409]}},{"type":"Feature","properties":{"name":"Rainha","kind":"bairro"},"geometry":{"type":"Point","coordinates":[-48.72464945,-26.511502999999998]}},{"type":"Feature","properties":{"name":"Fátima","kind":"bairro"},"geometry":{"type":"Point","coordinates":[-48.815493450000005,-26.323824799999997]}},{"type":"Feature","properties":{"name":"Adhemar Garcia","kind":"bairro"},"geometry":{"type":"Point","coordinates":[-48.8017879,-26.32171925]}},{"type":"Feature","properties":{"name":"Rio Bonito","kind":"bairro"},"geometry":{"type":"Point","coordinates":[-48.90826765,-26.1653259]}},{"type":"Feature","properties":{"name":"Corveta","kind":"bairro"},"geometry":{"type":"Point","coordinates":[-48.776382,-26.461136]}},{"type":"Feature","properties":{"name":"Itinga","kind":"bairro"},"geometry":{"type":"Point","coordinates":[-48.7957255,-26.41016585]}},{"type":"Feature","properties":{"name":"Espinheiros","kind":"bairro"},"geometry":{"type":"Point","coordinates":[-48.780918,-26.2833829]}},{"type":"Feature","properties":{"name":"Zona Industrial Tupy","kind":"bairro"},"geometry":{"type":"Point","coordinates":[-48.80817895,-26.2926208]}},{"type":"Feature","properties":{"name":"Itinga","kind":"bairro"},"geometry":{"type":"Point","coordinates":[-48.82573845,-26.3830283]}},{"type":"Feature","properties":{"name":"Jarivatuba","kind":"bairro"},"geometry":{"type":"Point","coordinates":[-48.8051558,-26.3328748]}},{"type":"Feature","properties":{"name":"Morro do Meio","kind":"bairro"},"geometry":{"type":"Point","coordinates":[-48.90846275,-26.32491495]}},{"type":"Feature","properties":{"name":"Boa Vista","kind":"bairro"},"geometry":{"type":"Point","coordinates":[-48.8224345,-26.2979885]}},{"type":"Feature","properties":{"name":"Volta Redonda","kind":"bairro"},"geometry":{"type":"Point","coordinates":[-48.7020526,-26.369790700000003]}},{"type":"Feature","properties":{"name":"Centro","kind":"bairro"},"geometry":{"type":"Point","coordinates":[-48.720361350000005,-26.38078455]}},{"type":"Feature","properties":{"name":"Dona Francisca","kind":"bairro"},"geometry":{"type":"Point","coordinates":[-48.922451949999996,-26.2010716]}},{"type":"Feature","properties":{"name":"Porto Grande","kind":"bairro"},"geometry":{"type":"Point","coordinates":[-48.754172499999996,-26.40955445]}},{"type":"Feature","properties":{"name":"Colégio Agrícola","kind":"bairro"},"geometry":{"type":"Point","coordinates":[-48.73607725,-26.394377]}},{"type":"Feature","properties":{"name":"Iririú","kind":"bairro"},"geometry":{"type":"Point","coordinates":[-48.82372035,-26.2754838]}},{"type":"Feature","properties":{"name":"Saguaçu","kind":"bairro"},"geometry":{"type":"Point","coordinates":[-48.8386609,-26.28625675]}},{"type":"Feature","properties":{"name":"Glória","kind":"bairro"},"geometry":{"type":"Point","coordinates":[-48.874362399999995,-26.296351100000003]}},{"type":"Feature","properties":{"name":"Profipo","kind":"bairro"},"geometry":{"type":"Point","coordinates":[-48.839273950000006,-26.3688993]}},{"type":"Feature","properties":{"name":"Jardim Iririú","kind":"bairro"},"geometry":{"type":"Point","coordinates":[-48.807113799999996,-26.26323345]}},{"type":"Feature","properties":{"name":"Comasa","kind":"bairro"},"geometry":{"type":"Point","coordinates":[-48.8016212,-26.279190649999997]}},{"type":"Feature","properties":{"name":"Nova Brasília","kind":"bairro"},"geometry":{"type":"Point","coordinates":[-48.8738905,-26.339059300000002]}},{"type":"Feature","properties":{"name":"São Marcos","kind":"bairro"},"geometry":{"type":"Point","coordinates":[-48.88411435,-26.313272249999997]}},{"type":"Feature","properties":{"name":"Vila Nova","kind":"bairro"},"geometry":{"type":"Point","coordinates":[-48.905711,-26.2844483]}},{"type":"Feature","properties":{"name":"Bucarein","kind":"bairro"},"geometry":{"type":"Point","coordinates":[-48.838269249999996,-26.31466465]}},{"type":"Feature","properties":{"name":"Centro","kind":"bairro"},"geometry":{"type":"Point","coordinates":[-48.8462441,-26.3016151]}},{"type":"Feature","properties":{"name":"Barra do Itapocu","kind":"bairro"},"geometry":{"type":"Point","coordinates":[-48.68677265,-26.56831185]}},{"type":"Feature","properties":{"name":"Itapocu","kind":"bairro"},"geometry":{"type":"Point","coordinates":[-48.7188683,-26.5675057]}},{"type":"Feature","properties":{"name":"Floresta","kind":"bairro"},"geometry":{"type":"Point","coordinates":[-48.85303165,-26.3349896]}},{"type":"Feature","properties":{"name":"Santa Catarina","kind":"bairro"},"geometry":{"type":"Point","coordinates":[-48.84874165,-26.367110699999998]}},{"type":"Feature","properties":{"name":"Anita Garibaldi","kind":"bairro"},"geometry":{"type":"Point","coordinates":[-48.85837145,-26.3173544]}},{"type":"Feature","properties":{"name":"Atiradores","kind":"bairro"},"geometry":{"type":"Point","coordinates":[-48.8637679,-26.31015615]}},{"type":"Feature","properties":{"name":"Costa e Silva","kind":"bairro"},"geometry":{"type":"Point","coordinates":[-48.880045749999994,-26.274719500000003]}},{"type":"Feature","properties":{"name":"América","kind":"bairro"},"geometry":{"type":"Point","coordinates":[-48.85357815,-26.290342350000003]}},{"type":"Feature","properties":{"name":"Bom Retiro","kind":"bairro"},"geometry":{"type":"Point","coordinates":[-48.84178300000001,-26.260588300000002]}},{"type":"Feature","properties":{"name":"Santo Antônio","kind":"bairro"},"geometry":{"type":"Point","coordinates":[-48.856725850000004,-26.2689934]}},{"type":"Feature","properties":{"name":"Boehmerwald","kind":"bairro"},"geometry":{"type":"Point","coordinates":[-48.82894935,-26.36300235]}},{"type":"Feature","properties":{"name":"Petrópolis","kind":"bairro"},"geometry":{"type":"Point","coordinates":[-48.83064885,-26.349029350000002]}},{"type":"Feature","properties":{"name":"Guanabara","kind":"bairro"},"geometry":{"type":"Point","coordinates":[-48.82874285,-26.3222065]}},{"type":"Feature","properties":{"name":"Itaum","kind":"bairro"},"geometry":{"type":"Point","coordinates":[-48.82939275,-26.33297275]}},{"type":"Feature","properties":{"name":"João Costa","kind":"bairro"},"geometry":{"type":"Point","coordinates":[-48.8097138,-26.34696885]}},{"type":"Feature","properties":{"name":"Paranaguamirim","kind":"bairro"},"geometry":{"type":"Point","coordinates":[-48.762581850000004,-26.3448195]}},{"type":"Feature","properties":{"name":"Jardim Sofia","kind":"bairro"},"geometry":{"type":"Point","coordinates":[-48.843800349999995,-26.2386185]}},{"type":"Feature","properties":{"name":"Vila Cubatão","kind":"bairro"},"geometry":{"type":"Point","coordinates":[-48.7992349,-26.217421350000002]}},{"type":"Feature","properties":{"name":"Jardim Paraíso","kind":"bairro"},"geometry":{"type":"Point","coordinates":[-48.822468799999996,-26.21385545]}},{"type":"Feature","properties":{"name":"Zona Industrial Norte","kind":"bairro"},"geometry":{"type":"Point","coordinates":[-48.86559415,-26.242450849999997]}},{"type":"Feature","properties":{"name":"Vale Verde","kind":"bairro"},"geometry":{"type":"Point","coordinates":[-48.8647108,-26.216239700000003]}},{"type":"Feature","properties":{"name":"Pirabeiraba Centro","kind":"bairro"},"geometry":{"type":"Point","coordinates":[-48.90567885,-26.21295495]}},{"type":"Feature","properties":{"name":"Marinas","kind":"bairro"},"geometry":{"type":"Point","coordinates":[-48.7982675,-26.2120695]}},{"type":"Feature","properties":{"name":"Aventureiro","kind":"bairro"},"geometry":{"type":"Point","coordinates":[-48.80960465,-26.239937949999998]}},{"type":"Feature","properties":{"name":"Areias Pequenas","kind":"bairro"},"geometry":{"type":"Point","coordinates":[-48.69396245,-26.379715400000002]}},{"type":"Feature","properties":{"name":"Pirabeiraba","kind":"distrito"},"geometry":{"type":"Point","coordinates":[-49.003878,-26.1639236]}},{"type":"Feature","properties":{"name":"Joinville","kind":"cidade"},"geometry":{"type":"Point","coordinates":[-48.96204965,-26.263183750000003]}},{"type":"Feature","properties":{"name":"Araquari","kind":"cidade"},"geometry":{"type":"Point","coordinates":[-48.77968245,-26.44250595]}}]}