{"type":"FeatureCollection","features":[{"type":"Feature","properties":{"name":"Joinville e Araquari"},"geometry":{"type":"Polygon","coordinates":[[[-48.721,-26.305],[-48.7228154,-26.3221731],[-48.7227589,-26.3245484],[-48.7217466,-26.3269423],[-48.7138111,-26.3310488],[-48.7090729,-26.3332308],[-48.705228,-26.3398756],[-48.7037689,-26.3417986],[-48.701,-26.344],[-48.693548,-26.3469829],[-48.6885417,-26.3479408],[-48.6869569,-26.3484038],[-48.6805517,-26.3522687],[-48.6709919,-26.3560479],[-48.6624837,-26.3607693],[-48.6650886,-26.3655265],[-48.6657915,-26.3664314],[-48.6673377,-26.3675845],[-48.6693488,-26.3686397],[-48.6720128,-26.3693292],[-48.688342,-26.3702381],[-48.6869115,-26.3735465],[-48.6862939,-26.3746273],[-48.6850809,-26.3763286],[-48.6835616,-26.377883],[-48.6800548,-26.3803296],[-48.6756637,-26.3827046],[-48.6736868,-26.384027],[-48.6722385,-26.3856217],[-48.6695346,-26.4133213],[-48.6737218,-26.4135581],[-48.6746121,-26.413808],[-48.6748665,-26.4142203],[-48.6748489,-26.4147904],[-48.6754936,-26.4151456],[-48.6756471,-26.4154438],[-48.6759848,-26.4154438],[-48.6771118,-26.4166893],[-48.6801554,-26.4190224],[-48.6803527,-26.4193688],[-48.6814666,-26.4199653],[-48.6821069,-26.421088],[-48.6827648,-26.4211406],[-48.6838611,-26.4217458],[-48.6842997,-26.4216756],[-48.6847031,-26.421851],[-48.6850978,-26.4209739],[-48.6853522,-26.4209038],[-48.6856241,-26.4209827],[-48.6862907,-26.4217633],[-48.686738,-26.4216756],[-48.687238,-26.4218774],[-48.6880361,-26.4218686],[-48.6884834,-26.4222019],[-48.6887641,-26.4221405],[-48.6898605,-26.422465],[-48.6929742,-26.4228685],[-48.6935268,-26.423193],[-48.6948687,-26.4234912],[-48.695202,-26.423807],[-48.6953599,-26.4248244],[-48.6959125,-26.4250174],[-48.6972632,-26.424877],[-48.6983684,-26.4251928],[-48.699263,-26.4257892],[-48.701754,-26.4260173],[-48.703017,-26.4268944],[-48.7037538,-26.4279294],[-48.7047888,-26.4281399],[-48.7052448,-26.4285258],[-48.7053676,-26.4288942],[-48.7060869,-26.4293152],[-48.70635,-26.4303326],[-48.7066482,-26.4305256],[-48.7083147,-26.430508],[-48.7095602,-26.430929],[-48.7020288,-26.445818],[-48.6820285,-26.4822329],[-48.6507409,-26.547309],[-48.6540006,-26.5550417],[-48.6542952,-26.5554944],[-48.6548526,-26.5558508],[-48.6555339,-26.5568201],[-48.6556413,-26.55963],[-48.6619147,-26.5740755],[-48.6641249,-26.5807166],[-48.6645118,-26.5813344],[-48.6717532,-26.578505],[-48.6734708,-26.5780403],[-48.6777598,-26.5774328],[-48.6791846,-26.5768359],[-48.6801614,-26.5758294],[-48.6812597,-26.5741003],[-48.6817822,-26.573562],[-48.6824344,-26.5730654],[-48.6845237,-26.5720871],[-48.6869418,-26.5715533],[-48.6880197,-26.571474],[-48.6888892,-26.5717035],[-48.6947921,-26.5756133],[-48.6950933,-26.5760844],[-48.6953877,-26.5800204],[-48.6966401,-26.5859489],[-48.697108,-26.5864329],[-48.6977688,-26.5867542],[-48.6985536,-26.5868754],[-48.6998191,-26.5867335],[-48.7008889,-26.5871375],[-48.7037682,-26.5900107],[-48.7042222,-26.5906402],[-48.7045413,-26.5920125],[-48.7044338,-26.5945119],[-48.704707,-26.5951624],[-48.7058547,-26.5965498],[-48.7065086,-26.5970506],[-48.7077876,-26.5973832],[-48.7093383,-26.5975943],[-48.7138714,-26.5977068],[-48.7173771,-26.5988687],[-48.7198651,-26.5990119],[-48.7225868,-26.5984432],[-48.7237922,-26.597929],[-48.7254135,-26.5969612],[-48.7260556,-26.5963725],[-48.7281789,-26.5929817],[-48.7292952,-26.5906682],[-48.7302047,-26.5818304],[-48.7297597,-26.5769179],[-48.7298491,-26.5738448],[-48.7300245,-26.5726767],[-48.7308841,-26.5705766],[-48.7323254,-26.5686182],[-48.7334556,-26.5674605],[-48.7369069,-26.5647512],[-48.7412831,-26.559743],[-48.7421227,-26.5582617],[-48.7477431,-26.5460271],[-48.7496841,-26.5441482],[-48.7507428,-26.541076],[-48.7517279,-26.5397846],[-48.7565545,-26.5366696],[-48.7618052,-26.5347043],[-48.764161,-26.5334047],[-48.7660857,-26.5318599],[-48.7674451,-26.5312827],[-48.7706746,-26.531036],[-48.7719833,-26.5313324],[-48.7736133,-26.5312446],[-48.7778993,-26.5288834],[-48.7795653,-26.5274001],[-48.7808573,-26.5268845],[-48.7847899,-26.5262022],[-48.7869871,-26.5253867],[-48.789879,-26.5231341],[-48.7911156,-26.5213031],[-48.7941414,-26.5184389],[-48.7952624,-26.5177561],[-48.8006082,-26.5156343],[-48.8042025,-26.5147959],[-48.8064832,-26.5130828],[-48.8074582,-26.5130744],[-48.8093339,-26.5137352],[-48.8101588,-26.51378],[-48.8123935,-26.5132127],[-48.8132652,-26.5132056],[-48.8140498,-26.513624],[-48.8145432,-26.5145174],[-48.8134554,-26.5169638],[-48.8134633,-26.5177935],[-48.8137348,-26.5186784],[-48.8143526,-26.5194067],[-48.8149906,-26.5196118],[-48.8158131,-26.5193537],[-48.8169159,-26.5176942],[-48.8180835,-26.516697],[-48.818912,-26.5163301],[-48.820601,-26.5160366],[-48.8239725,-26.5151402],[-48.8251519,-26.5150936],[-48.8259444,-26.5153333],[-48.8267989,-26.5165792],[-48.8266593,-26.5172297],[-48.8258547,-26.5185497],[-48.8256669,-26.5191785],[-48.8258761,-26.5200617],[-48.8270214,-26.5208408],[-48.8277587,-26.5210895],[-48.8283343,-26.5210641],[-48.8290097,-26.5207758],[-48.8303354,-26.5206739],[-48.8313079,-26.5210805],[-48.8318715,-26.5216519],[-48.8322944,-26.5227567],[-48.8332891,-26.5239741],[-48.8335907,-26.5248895],[-48.8335839,-26.5255874],[-48.8333001,-26.5260271],[-48.8306826,-26.52701],[-48.8294293,-26.5279177],[-48.8289126,-26.5288569],[-48.8290932,-26.5294224],[-48.8298705,-26.5300504],[-48.8318201,-26.5307141],[-48.8338565,-26.5311838],[-48.8348148,-26.5311651],[-48.8359622,-26.5307337],[-48.8367116,-26.5301638],[-48.8372342,-26.5292194],[-48.8373518,-26.5279699],[-48.8378895,-26.526475],[-48.8389029,-26.5255859],[-48.8393613,-26.5255159],[-48.8399185,-26.5257493],[-48.8402333,-26.5261867],[-48.8404371,-26.5271845],[-48.8403498,-26.5283582],[-48.8406596,-26.5293331],[-48.8412136,-26.5302354],[-48.8434276,-26.5321114],[-48.84543,-26.5323317],[-48.846561,-26.5315867],[-48.8475896,-26.5290589],[-48.8481681,-26.5280851],[-48.8488459,-26.5277092],[-48.8497856,-26.5277907],[-48.8512785,-26.5286111],[-48.8525239,-26.5297722],[-48.8530132,-26.5304724],[-48.8532825,-26.5313608],[-48.8534783,-26.5348599],[-48.8538055,-26.5351912],[-48.8550024,-26.535827],[-48.8555861,-26.5364342],[-48.8559577,-26.5371728],[-48.8561189,-26.5393737],[-48.8564814,-26.5401406],[-48.857225,-26.5409418],[-48.8579703,-26.5412997],[-48.8589652,-26.5413788],[-48.8596832,-26.5412451],[-48.860268,-26.5408434],[-48.86045,-26.5402895],[-48.8603951,-26.5395125],[-48.8593987,-26.5378658],[-48.8592786,-26.5370544],[-48.8597451,-26.5360781],[-48.861074,-26.5352228],[-48.8628758,-26.5351979],[-48.8634113,-26.5356011],[-48.8636615,-26.5362291],[-48.8631748,-26.5392383],[-48.8632734,-26.5399175],[-48.8637997,-26.5403197],[-48.8645325,-26.540364],[-48.8650568,-26.5401621],[-48.8653881,-26.5395642],[-48.865684,-26.538165],[-48.8657376,-26.5365691],[-48.8660533,-26.5362606],[-48.8669046,-26.5362629],[-48.8692746,-26.5368658],[-48.871066,-26.5367485],[-48.8728014,-26.5357648],[-48.8739742,-26.5347318],[-48.874939,-26.5328349],[-48.8763055,-26.5310703],[-48.8814217,-26.526665],[-48.8840778,-26.5235711],[-48.8842262,-26.5227962],[-48.88416,-26.5214413],[-48.8843376,-26.5207143],[-48.8847412,-26.5199923],[-48.8863681,-26.5180803],[-48.8866656,-26.517462],[-48.886832,-26.5165446],[-48.8867458,-26.5158585],[-48.887033,-26.5150638],[-48.8878264,-26.5143116],[-48.8884816,-26.5141901],[-48.8890978,-26.5144364],[-48.8900437,-26.5153537],[-48.8905274,-26.5161626],[-48.8910793,-26.5163061],[-48.8917942,-26.5161284],[-48.8923437,-26.5156879],[-48.8930463,-26.5140098],[-48.8935543,-26.513698],[-48.8943806,-26.5137306],[-48.8961481,-26.5142632],[-48.8972714,-26.5142955],[-48.897934,-26.5138424],[-48.898127,-26.5129407],[-48.8988104,-26.5113049],[-48.9007051,-26.5088554],[-48.9007483,-26.507904],[-48.9001315,-26.5066324],[-48.8999494,-26.5058711],[-48.9001401,-26.5051703],[-48.9044852,-26.5023204],[-48.9047333,-26.5017649],[-48.9045369,-26.4992694],[-48.905303,-26.4983792],[-48.9062514,-26.4978777],[-48.9071126,-26.4978151],[-48.9083439,-26.4968751],[-48.908624,-26.4963505],[-48.9084277,-26.4961291],[-48.9077905,-26.4959083],[-48.9055963,-26.4965522],[-48.9045839,-26.496313],[-48.9037001,-26.495568],[-48.9030682,-26.4954508],[-48.9018946,-26.4955549],[-48.8991221,-26.4971158],[-48.8983373,-26.4970183],[-48.8976723,-26.4963419],[-48.8975706,-26.4959321],[-48.8979666,-26.4951549],[-48.8985044,-26.4947061],[-48.8999937,-26.4946233],[-48.9012914,-26.4940459],[-48.9017669,-26.4935827],[-48.9019414,-26.4929453],[-48.9016652,-26.4920347],[-48.9010548,-26.4915664],[-48.9000737,-26.4915404],[-48.8989909,-26.4930591],[-48.8983118,-26.4931354],[-48.8977845,-26.4928803],[-48.8975011,-26.4923697],[-48.8974975,-26.4916412],[-48.8978463,-26.4913323],[-48.8984168,-26.4914721],[-48.8988056,-26.4912607],[-48.8991144,-26.489742],[-48.8996195,-26.4892347],[-48.9007532,-26.4892347],[-48.9013454,-26.4896444],[-48.9015671,-26.4904802],[-48.9020395,-26.4911697],[-48.9028897,-26.4915209],[-48.9053424,-26.4916738],[-48.9058657,-26.491277],[-48.9060619,-26.4908802],[-48.9059067,-26.4901778],[-48.9049461,-26.4888351],[-48.9043031,-26.4868844],[-48.9041686,-26.4859661],[-48.9037152,-26.4852645],[-48.902401,-26.4846145],[-48.9013174,-26.4835827],[-48.9005316,-26.4821708],[-48.8998245,-26.4819902],[-48.8990323,-26.4815064],[-48.8979141,-26.4804746],[-48.8965768,-26.4785897],[-48.8954148,-26.4776267],[-48.894043,-26.4769009],[-48.8925713,-26.4765776],[-48.8915568,-26.4765948],[-48.8909843,-26.4769387],[-48.8885469,-26.4771726],[-48.8883459,-26.4770316],[-48.8876111,-26.477107],[-48.8863395,-26.4776031],[-48.8862797,-26.4778317],[-48.8835082,-26.4787511],[-48.8830409,-26.4783911],[-48.881954,-26.4783182],[-48.8809976,-26.4780506],[-48.8807639,-26.4778415],[-48.8803156,-26.4769513],[-48.8812328,-26.4766125],[-48.8817477,-26.4761378],[-48.8826853,-26.4739413],[-48.8823317,-26.4736146],[-48.882351,-26.4728716],[-48.8818783,-26.471905],[-48.8804834,-26.4704294],[-48.8796919,-26.4691876],[-48.8787159,-26.4666077],[-48.8786121,-26.465077],[-48.8791617,-26.4636319],[-48.8818843,-26.459881],[-48.8819713,-26.4585869],[-48.8815854,-26.4575896],[-48.8807648,-26.4569182],[-48.8800095,-26.4567917],[-48.8793465,-26.4570301],[-48.8790259,-26.4575264],[-48.8793473,-26.459831],[-48.8792013,-26.4603194],[-48.878452,-26.4613136],[-48.8778526,-26.4617711],[-48.8770802,-26.4620291],[-48.8763347,-26.4619328],[-48.8758698,-26.4616404],[-48.8750513,-26.4600683],[-48.8745364,-26.4597174],[-48.8739485,-26.4596039],[-48.8727112,-26.4600786],[-48.8726843,-26.4605499],[-48.8721463,-26.4609593],[-48.8715661,-26.4610006],[-48.8709205,-26.4605224],[-48.8707284,-26.4598619],[-48.8700137,-26.4592874],[-48.8695064,-26.4590879],[-48.8692221,-26.4586407],[-48.8692836,-26.4579939],[-48.8695871,-26.4573266],[-48.8701597,-26.4565078],[-48.8707707,-26.456033],[-48.871885,-26.4556443],[-48.87396,-26.4552349],[-48.8749937,-26.4545297],[-48.8754471,-26.453938],[-48.8761887,-26.4522006],[-48.8763424,-26.4521352],[-48.8764421,-26.4509198],[-48.8760754,-26.4508059],[-48.8757718,-26.4500043],[-48.875132,-26.4490941],[-48.87348,-26.4483691],[-48.8717132,-26.448879],[-48.8705555,-26.4488435],[-48.8692762,-26.4478451],[-48.8685245,-26.4474533],[-48.8680264,-26.4476587],[-48.8681532,-26.4474007],[-48.868061,-26.4471117],[-48.8684683,-26.446802],[-48.8685567,-26.4463341],[-48.8680533,-26.4459798],[-48.8679226,-26.4462034],[-48.8677997,-26.4461587],[-48.8660743,-26.4446001],[-48.8647448,-26.4450439],[-48.8642645,-26.4454947],[-48.8641492,-26.4462103],[-48.8645296,-26.4473009],[-48.8642645,-26.4478204],[-48.8633115,-26.4483158],[-48.8625276,-26.4483915],[-48.8621357,-26.4481163],[-48.8615977,-26.4471667],[-48.8613134,-26.4471186],[-48.8603066,-26.4491002],[-48.8598963,-26.4494948],[-48.8590323,-26.449394],[-48.8573429,-26.4485851],[-48.8566704,-26.4480106],[-48.856559,-26.4476941],[-48.8566704,-26.4472296],[-48.8569356,-26.4469509],[-48.857658,-26.4463523],[-48.8586878,-26.4458156],[-48.8590682,-26.445362],[-48.8589799,-26.4448803],[-48.8580154,-26.4428814],[-48.857024,-26.4419524],[-48.8540229,-26.4407],[-48.8527356,-26.4405521],[-48.851848,-26.4408342],[-48.8513094,-26.4413724],[-48.8510654,-26.4425112],[-48.8506754,-26.4428329],[-48.8500908,-26.44285],[-48.8490917,-26.4425919],[-48.8489226,-26.4426952],[-48.8488803,-26.4435175],[-48.8500908,-26.4442985],[-48.8500716,-26.4447457],[-48.849703,-26.4447558],[-48.8475786,-26.4458655],[-48.8462309,-26.4456612],[-48.8431427,-26.4441901],[-48.8427588,-26.4438637],[-48.841998,-26.4425889],[-48.8419002,-26.4414455],[-48.8413948,-26.4407496],[-48.8404166,-26.4402679],[-48.8391157,-26.4403983],[-48.8391871,-26.439999],[-48.8405697,-26.4386156],[-48.8408164,-26.4367519],[-48.8410739,-26.4361851],[-48.8427036,-26.433265],[-48.8472752,-26.4290373],[-48.8479365,-26.4282331],[-48.849259,-26.4272796],[-48.8501709,-26.4258192],[-48.8504574,-26.4250743],[-48.8514454,-26.4244773],[-48.852916,-26.4240559],[-48.8536844,-26.4232588],[-48.8539584,-26.4224824],[-48.8537234,-26.4174696],[-48.8544243,-26.415605],[-48.8562268,-26.4116634],[-48.8566947,-26.4109594],[-48.8648358,-26.4018733],[-48.8666527,-26.3993566],[-48.8686198,-26.3974493],[-48.8690881,-26.3967932],[-48.8711323,-26.3957238],[-48.8716939,-26.3944543],[-48.8715887,-26.3938419],[-48.8717928,-26.393263],[-48.8727126,-26.3927885],[-48.8746926,-26.3913291],[-48.8749077,-26.389856],[-48.8755656,-26.3889282],[-48.8757132,-26.3871209],[-48.8756601,-26.382462],[-48.8765198,-26.381722],[-48.8767039,-26.3807627],[-48.8770545,-26.3805103],[-48.8793823,-26.3809664],[-48.8812943,-26.3802074],[-48.8823719,-26.3795743],[-48.8837831,-26.3799644],[-48.8861433,-26.3787957],[-48.8872401,-26.3785405],[-48.889426,-26.3775236],[-48.896978,-26.3747057],[-48.9050166,-26.3738174],[-48.9061997,-26.3735474],[-48.9077918,-26.3737639],[-48.9183463,-26.3768049],[-48.9220522,-26.3793407],[-48.923257,-26.3799136],[-48.9234814,-26.3804904],[-48.9230772,-26.3827561],[-48.9234014,-26.3849695],[-48.9231205,-26.3860225],[-48.921062,-26.3899073],[-48.9208484,-26.3917331],[-48.9241529,-26.4040582],[-48.9240729,-26.4165236],[-48.9244203,-26.4173622],[-48.9253357,-26.4181913],[-48.9304646,-26.42121],[-48.9384381,-26.4186723],[-48.9503691,-26.4122127],[-48.9506006,-26.411843],[-48.9534619,-26.4117799],[-48.9536531,-26.4109595],[-48.953711,-26.4083255],[-48.9534721,-26.40732],[-48.9536833,-26.406987],[-48.9596577,-26.405349],[-48.9601894,-26.4048334],[-48.9604922,-26.404228],[-48.9603902,-26.4039397],[-48.960531,-26.4036777],[-48.9610495,-26.4040069],[-48.9614221,-26.4040294],[-48.9624441,-26.4031276],[-48.9641332,-26.403087],[-48.9647398,-26.4025008],[-48.9647751,-26.4014929],[-48.9649588,-26.4009428],[-48.9658323,-26.4002077],[-48.9659273,-26.3997863],[-48.9662697,-26.3993917],[-48.975,-26.394],[-49.0036781,-26.3873814],[-49.0035965,-26.3868555],[-49.0044643,-26.3860448],[-49.0056246,-26.383864],[-49.0052528,-26.3829983],[-49.0050305,-26.3817225],[-49.0052473,-26.3781576],[-49.0051544,-26.3742136],[-49.0039096,-26.3688262],[-49.0039497,-26.3674009],[-49.0041137,-26.3669635],[-49.0061094,-26.3658718],[-49.0076768,-26.3639253],[-49.0079046,-26.3630578],[-49.0084167,-26.3625201],[-49.009944,-26.362799],[-49.0104963,-26.3635353],[-49.0117793,-26.3634606],[-49.0129257,-26.3621502],[-49.0142981,-26.3612881],[-49.0172743,-26.3579528],[-49.0179468,-26.3558988],[-49.0186029,-26.3548399],[-49.0189602,-26.3537719],[-49.019496,-26.353052],[-49.0200191,-26.3517762],[-49.020646,-26.3511857],[-49.0208884,-26.3503856],[-49.0198423,-26.3469556],[-49.0182749,-26.3457327],[-49.0174402,-26.3439903],[-49.0174748,-26.3424521],[-49.0181819,-26.340697],[-49.0186977,-26.3400245],[-49.0190622,-26.3376752],[-49.0179778,-26.3367257],[-49.0111437,-26.3250357],[-49.0098002,-26.3241597],[-49.0080703,-26.3234935],[-49.0072458,-26.3222568],[-49.0062373,-26.3211378],[-49.0057404,-26.3208654],[-49.0052987,-26.3198459],[-49.0045036,-26.3190287],[-49.0037491,-26.3177],[-49.0033111,-26.3175159],[-49.0022105,-26.3165957],[-49.0011173,-26.3163454],[-48.9988095,-26.3168092],[-48.9977163,-26.3159774],[-48.997304,-26.3148952],[-48.9962845,-26.3131579],[-48.9962771,-26.3123113],[-48.9968292,-26.3113322],[-48.997801,-26.310747],[-49.0020302,-26.3095986],[-49.0031601,-26.3085864],[-49.0071096,-26.3080232],[-49.0077501,-26.3077361],[-49.0086114,-26.3068564],[-49.0093806,-26.3064295],[-49.01008,-26.3063522],[-49.010529,-26.3064884],[-49.0111106,-26.3076147],[-49.0121707,-26.3087189],[-49.0126528,-26.3094551],[-49.0150821,-26.3103495],[-49.0163925,-26.3104709],[-49.0194917,-26.3099299],[-49.0204929,-26.3095986],[-49.0218253,-26.3082735],[-49.0230584,-26.3064368],[-49.0279133,-26.3060614],[-49.0277992,-26.3084392],[-49.0280973,-26.3097237],[-49.0284875,-26.3102832],[-49.0305892,-26.3111629],[-49.0314211,-26.3118034],[-49.0338504,-26.3129371],[-49.0345571,-26.3130438],[-49.0350871,-26.3128303],[-49.0354993,-26.3124328],[-49.0358159,-26.3115862],[-49.036979,-26.3101581],[-49.0377446,-26.3088735],[-49.039493,-26.3079423],[-49.040012,-26.3079607],[-49.0416683,-26.308822],[-49.0424854,-26.3104489],[-49.0437553,-26.3116414],[-49.0444289,-26.3119175],[-49.0450399,-26.3116856],[-49.0452865,-26.3108611],[-49.0448779,-26.3103679],[-49.0438142,-26.3098047],[-49.042975,-26.3087815],[-49.0430928,-26.3075484],[-49.0438547,-26.3066025],[-49.0446681,-26.3061792],[-49.0467478,-26.3058442],[-49.047852,-26.3059878],[-49.0494936,-26.3065841],[-49.0504764,-26.3080269],[-49.0511131,-26.308476],[-49.0523572,-26.3090465],[-49.0532333,-26.3097532],[-49.0543669,-26.309801],[-49.0553276,-26.3103495],[-49.0560049,-26.3118954],[-49.0560012,-26.3124254],[-49.0600206,-26.3154584],[-49.0615518,-26.3162681],[-49.0648755,-26.3156314],[-49.0661675,-26.3150645],[-49.0668926,-26.3135149],[-49.0669036,-26.3132462],[-49.0649344,-26.3127677],[-49.0633848,-26.3119727],[-49.0630425,-26.3110635],[-49.0629615,-26.3089434],[-49.0623468,-26.3071178],[-49.0616107,-26.3060835],[-49.0607089,-26.3053105],[-49.0604328,-26.3043793],[-49.0607015,-26.3039413],[-49.0611616,-26.303691],[-49.0607604,-26.3022739],[-49.0603224,-26.301512],[-49.0582482,-26.3003305],[-49.0576784,-26.2996733],[-49.0537034,-26.2966422],[-49.0519606,-26.2950145],[-49.0531895,-26.293569],[-49.0544109,-26.2926782],[-49.0544147,-26.2921463],[-49.0541659,-26.2907578],[-49.0531592,-26.2897739],[-49.0524013,-26.2883265],[-49.0512825,-26.2874166],[-49.050705,-26.2865106],[-49.0503992,-26.2856767],[-49.0500573,-26.283517],[-49.0481426,-26.2829528],[-49.0466724,-26.2818473],[-49.0457246,-26.2815605],[-49.0439771,-26.2795338],[-49.0409721,-26.2782269],[-49.0398343,-26.2773779],[-49.0378683,-26.2771879],[-49.0356156,-26.2765763],[-49.0341644,-26.2747053],[-49.034303,-26.2719681],[-49.0340105,-26.2707221],[-49.0335679,-26.2703935],[-49.0319648,-26.2697742],[-49.0320426,-26.2689613],[-49.0323333,-26.2681844],[-49.0329886,-26.2675291],[-49.0332222,-26.2658632],[-49.0331994,-26.2643797],[-49.0322744,-26.2638821],[-49.0322022,-26.2634813],[-49.0324244,-26.2633122],[-49.0335128,-26.2634395],[-49.0338585,-26.2633084],[-49.0343961,-26.2619104],[-49.0348577,-26.26135],[-49.0356801,-26.2614678],[-49.0374239,-26.2625695],[-49.0395266,-26.2625448],[-49.0399939,-26.2631052],[-49.040161,-26.2638137],[-49.0401211,-26.2654529],[-49.040634,-26.2663286],[-49.0409075,-26.2680609],[-49.0411696,-26.2685225],[-49.0438612,-26.2710431],[-49.0462374,-26.2726349],[-49.0480021,-26.2734896],[-49.0483611,-26.2738885],[-49.0483877,-26.2751498],[-49.0480363,-26.2754689],[-49.0469156,-26.2758127],[-49.0466078,-26.2760501],[-49.0461957,-26.2773475],[-49.0451073,-26.2781604],[-49.0448831,-26.2784967],[-49.0447748,-26.2791349],[-49.0448812,-26.2793647],[-49.045434,-26.2796154],[-49.0482471,-26.2795091],[-49.0500364,-26.2801055],[-49.0510773,-26.2800086],[-49.0521277,-26.2793704],[-49.0562515,-26.2787132],[-49.0570465,-26.2787531],[-49.0576642,-26.2793189],[-49.0581184,-26.2811902],[-49.0577498,-26.2834769],[-49.0588815,-26.2862852],[-49.0602753,-26.2874843],[-49.0622115,-26.2888236],[-49.0626449,-26.2896516],[-49.0627747,-26.2912426],[-49.062253,-26.2923742],[-49.0608515,-26.2941314],[-49.0621867,-26.2956416],[-49.0628602,-26.2956773],[-49.0627281,-26.2962627],[-49.0628913,-26.2965588],[-49.0636648,-26.2967226],[-49.0641973,-26.2964996],[-49.0645238,-26.2966007],[-49.0647064,-26.2969596],[-49.0652001,-26.296977],[-49.0655382,-26.2973812],[-49.066405,-26.2973463],[-49.0668636,-26.2977366],[-49.0687068,-26.2977004],[-49.0691686,-26.2973629],[-49.0713013,-26.2969771],[-49.0715926,-26.296743],[-49.071929,-26.2960433],[-49.0721281,-26.2944517],[-49.0720038,-26.2941154],[-49.0722933,-26.2937565],[-49.0728006,-26.2935352],[-49.0734645,-26.2936629],[-49.075359,-26.2929206],[-49.0783107,-26.2939721],[-49.0800391,-26.2943355],[-49.0819948,-26.2950061],[-49.0826067,-26.2959801],[-49.0827585,-26.2976494],[-49.083066,-26.2981923],[-49.0847486,-26.299947],[-49.0853465,-26.3014669],[-49.086596,-26.302342],[-49.0870706,-26.3036878],[-49.0867339,-26.3044334],[-49.0860486,-26.3049974],[-49.0856824,-26.3055233],[-49.0857006,-26.3067918],[-49.0855389,-26.307185],[-49.0846095,-26.3079199],[-49.0843065,-26.3090469],[-49.083444,-26.3102187],[-49.0834544,-26.3106783],[-49.0840819,-26.3116209],[-49.0839748,-26.3122874],[-49.0841382,-26.3127635],[-49.0844148,-26.3130551],[-49.0861565,-26.3139729],[-49.0872898,-26.3149081],[-49.0874468,-26.3154865],[-49.0880899,-26.3164079],[-49.0881614,-26.3169302],[-49.0883867,-26.3171075],[-49.0869631,-26.317753],[-49.0868092,-26.318423],[-49.0863585,-26.3191177],[-49.0860012,-26.3200834],[-49.0870361,-26.3205414],[-49.0876172,-26.3213545],[-49.0881009,-26.3217437],[-49.0890793,-26.3221428],[-49.0897114,-26.3221477],[-49.0903545,-26.321926],[-49.0909372,-26.3220541],[-49.0914814,-26.3225961],[-49.0930644,-26.3249855],[-49.093309,-26.3262319],[-49.0932293,-26.3280375],[-49.0933502,-26.3283898],[-49.093812,-26.3286213],[-49.0941775,-26.3287962],[-49.0962767,-26.3264974],[-49.0980054,-26.3250217],[-49.1004509,-26.3245157],[-49.1016315,-26.3233773],[-49.1021375,-26.3219437],[-49.1049624,-26.3200885],[-49.1059744,-26.3188236],[-49.1060587,-26.3174322],[-49.1054684,-26.3128364],[-49.1048781,-26.3111076],[-49.1036554,-26.3100536],[-49.1028964,-26.3087043],[-49.1026434,-26.3078189],[-49.1024748,-26.305289],[-49.1031916,-26.3021268],[-49.1030651,-26.3005667],[-49.1012099,-26.2944108],[-49.1014207,-26.2937362],[-49.1019688,-26.2932724],[-49.1030229,-26.293188],[-49.1039083,-26.2935253],[-49.1047938,-26.2936518],[-49.1056371,-26.2935253],[-49.1070706,-26.2928507],[-49.1077031,-26.2920918],[-49.1083777,-26.2921339],[-49.1088891,-26.2925374],[-49.1093896,-26.2963925],[-49.1100221,-26.298838],[-49.1101064,-26.2999764],[-49.1115821,-26.3022111],[-49.1130157,-26.3028014],[-49.1155034,-26.3029279],[-49.117991,-26.3044458],[-49.1192981,-26.3043614],[-49.1211533,-26.3051204],[-49.1223761,-26.3050782],[-49.123894,-26.3054999],[-49.1251589,-26.3063431],[-49.1260865,-26.3071864],[-49.1273092,-26.3091259],[-49.1282368,-26.3100957],[-49.129038,-26.3103909],[-49.1295439,-26.3100114],[-49.1299226,-26.3091301],[-49.1308782,-26.3088085],[-49.1317272,-26.3088936],[-49.132891,-26.3093908],[-49.1356581,-26.3096964],[-49.1357186,-26.3104466],[-49.1363731,-26.3112509],[-49.1368707,-26.3140456],[-49.1371684,-26.3146232],[-49.1380628,-26.3151976],[-49.1384114,-26.3161151],[-49.1395248,-26.3171899],[-49.1399836,-26.3171332],[-49.1401345,-26.3166379],[-49.1398592,-26.3160749],[-49.139851,-26.3153658],[-49.1399367,-26.3151519],[-49.1403119,-26.3150057],[-49.1408543,-26.3150112],[-49.1416189,-26.3153237],[-49.1419819,-26.3159752],[-49.1420696,-26.3164888],[-49.142249,-26.3165966],[-49.1435031,-26.315988],[-49.144691,-26.3161538],[-49.1446099,-26.3156849],[-49.1438307,-26.3143687],[-49.1433299,-26.3141596],[-49.1427197,-26.3133002],[-49.1426986,-26.3121424],[-49.1429721,-26.3108065],[-49.1435317,-26.3104419],[-49.1446781,-26.3105641],[-49.1451475,-26.3092513],[-49.1446862,-26.3086574],[-49.1448282,-26.3073333],[-49.1446837,-26.3070518],[-49.1439969,-26.3068509],[-49.1438932,-26.3066884],[-49.1439615,-26.3056433],[-49.1436659,-26.3050992],[-49.1437236,-26.3044747],[-49.1433705,-26.3032504],[-49.1440099,-26.3031894],[-49.1445122,-26.3036619],[-49.1453308,-26.3035547],[-49.1464256,-26.3029342],[-49.1469201,-26.303228],[-49.1477784,-26.302991],[-49.1483895,-26.3031276],[-49.1491564,-26.3040052],[-49.1494017,-26.3039933],[-49.149957,-26.30357],[-49.1500485,-26.3027099],[-49.150243,-26.302496],[-49.150874,-26.3028489],[-49.1517026,-26.3027844],[-49.1517547,-26.3029828],[-49.152224,-26.3032877],[-49.1526121,-26.3026697],[-49.1541793,-26.3014658],[-49.1550929,-26.3014935],[-49.1554625,-26.3013318],[-49.1551928,-26.2998486],[-49.1547357,-26.2990315],[-49.1543119,-26.2987665],[-49.1542547,-26.2984494],[-49.1559058,-26.2978455],[-49.1566384,-26.2972668],[-49.1563963,-26.2969036],[-49.155407,-26.2966165],[-49.1550226,-26.2959776],[-49.1550581,-26.2954658],[-49.1553087,-26.2949438],[-49.1560153,-26.2946853],[-49.1572089,-26.2932161],[-49.1572811,-26.2926635],[-49.157035,-26.2912771],[-49.1571404,-26.2911238],[-49.1576217,-26.2910392],[-49.1581343,-26.2905991],[-49.1578635,-26.2900109],[-49.1570089,-26.2897188],[-49.1564971,-26.2888023],[-49.1557622,-26.2881739],[-49.1556293,-26.2878695],[-49.1576459,-26.2873403],[-49.1579929,-26.2870881],[-49.1581018,-26.2868049],[-49.1580111,-26.2861216],[-49.1586701,-26.2851675],[-49.1591318,-26.2839384],[-49.1602236,-26.283775],[-49.1621398,-26.2843377],[-49.162743,-26.2840603],[-49.1629564,-26.2833365],[-49.1623891,-26.2827308],[-49.1623403,-26.2824603],[-49.1623771,-26.2821894],[-49.1628366,-26.2817315],[-49.1627681,-26.2805402],[-49.1621973,-26.2791561],[-49.1619643,-26.2773865],[-49.1630793,-26.2753668],[-49.1632185,-26.274783],[-49.1629665,-26.2745202],[-49.1640068,-26.2734687],[-49.1643823,-26.2727395],[-49.1643093,-26.2720223],[-49.1645999,-26.2718553],[-49.1659099,-26.2719943],[-49.166582,-26.2713144],[-49.1670844,-26.2716821],[-49.1672147,-26.2704931],[-49.1681865,-26.2699284],[-49.1683642,-26.2696207],[-49.1683623,-26.2691865],[-49.1690366,-26.2688878],[-49.170265,-26.2691445],[-49.1707388,-26.2698876],[-49.1709564,-26.2699095],[-49.1715259,-26.268906],[-49.1702946,-26.2679429],[-49.1705522,-26.2673044],[-49.1707736,-26.2672596],[-49.1707952,-26.2665547],[-49.1705196,-26.26637],[-49.170565,-26.2662227],[-49.1717737,-26.2651425],[-49.1721107,-26.2645975],[-49.1721809,-26.2640814],[-49.1723415,-26.2638819],[-49.1727268,-26.2638277],[-49.1727407,-26.2635016],[-49.173275,-26.2634908],[-49.1743492,-26.2639233],[-49.1756712,-26.2630412],[-49.1754431,-26.2626247],[-49.1754934,-26.2621177],[-49.1732468,-26.2610928],[-49.1730736,-26.2607821],[-49.1735844,-26.2599296],[-49.1739353,-26.2597463],[-49.1742596,-26.2598858],[-49.1752724,-26.2595392],[-49.1760076,-26.2581793],[-49.1760298,-26.2575538],[-49.1764962,-26.2572272],[-49.1764207,-26.257016],[-49.1761497,-26.2568806],[-49.1756922,-26.2569961],[-49.1752746,-26.2567412],[-49.1752125,-26.2564105],[-49.1746927,-26.2562256],[-49.1747416,-26.2556759],[-49.174062,-26.2556599],[-49.1737333,-26.2543493],[-49.1731825,-26.2543413],[-49.1724158,-26.2535833],[-49.1725757,-26.2529698],[-49.1729044,-26.252675],[-49.1736773,-26.2524957],[-49.1739872,-26.2520802],[-49.1739572,-26.2516671],[-49.1731798,-26.2512289],[-49.1732465,-26.2501731],[-49.1730155,-26.2496712],[-49.1730665,-26.2490909],[-49.1718805,-26.2481188],[-49.1714807,-26.2479754],[-49.1710409,-26.248067],[-49.1702813,-26.2475252],[-49.1703772,-26.2470813],[-49.1689913,-26.2458024],[-49.1684538,-26.2448303],[-49.1687692,-26.2440295],[-49.1686226,-26.2434399],[-49.1688847,-26.2431929],[-49.1698309,-26.2436231],[-49.1698353,-26.2438263],[-49.1707637,-26.2440534],[-49.1712034,-26.2432168],[-49.1716254,-26.2429976],[-49.1714611,-26.2425992],[-49.1703772,-26.2421928],[-49.1701773,-26.2417267],[-49.1697687,-26.2414757],[-49.1698708,-26.2410972],[-49.169702,-26.2408342],[-49.1698486,-26.2407306],[-49.1696843,-26.239623],[-49.1688048,-26.2387106],[-49.1687826,-26.2379536],[-49.1691557,-26.2373121],[-49.1694355,-26.2371488],[-49.1693733,-26.2361407],[-49.169671,-26.2356467],[-49.1696976,-26.2351128],[-49.1702262,-26.2346944],[-49.1699508,-26.2342999],[-49.1688003,-26.2341565],[-49.1685827,-26.234021],[-49.1687337,-26.2336545],[-49.1683472,-26.2334791],[-49.1679963,-26.2335787],[-49.1677787,-26.2332241],[-49.1678364,-26.2328536],[-49.1690047,-26.2326145],[-49.1694489,-26.2326065],[-49.1696221,-26.2329253],[-49.1698309,-26.2329014],[-49.1700396,-26.2326464],[-49.169932,-26.2323562],[-49.1702607,-26.231894],[-49.171118,-26.2317346],[-49.1710558,-26.2315434],[-49.1703628,-26.2312126],[-49.1703451,-26.2309337],[-49.1707004,-26.230603],[-49.1702651,-26.2300691],[-49.1705894,-26.2297782],[-49.1706027,-26.2294953],[-49.1700563,-26.2290171],[-49.1705449,-26.2279413],[-49.1705316,-26.2276584],[-49.1703628,-26.2274671],[-49.1696876,-26.2273994],[-49.1695855,-26.227232],[-49.1701763,-26.2267299],[-49.1699097,-26.2266184],[-49.1699808,-26.2265108],[-49.1703406,-26.2263793],[-49.1703317,-26.226184],[-49.1700874,-26.226196],[-49.1702518,-26.2252556],[-49.1706826,-26.2249328],[-49.1711491,-26.2248731],[-49.1713445,-26.2244507],[-49.1711846,-26.2235979],[-49.1706826,-26.2236258],[-49.1703451,-26.224092],[-49.170043,-26.2240562],[-49.169581,-26.2236776],[-49.1695499,-26.2232473],[-49.1693501,-26.223064],[-49.1697409,-26.2217888],[-49.1695766,-26.2215497],[-49.1691813,-26.2216214],[-49.1690835,-26.2214541],[-49.1695144,-26.2213066],[-49.1693145,-26.2210476],[-49.1690036,-26.2210118],[-49.1689814,-26.2206412],[-49.1695011,-26.2202188],[-49.16951,-26.2199478],[-49.1697409,-26.2197685],[-49.1696521,-26.2194696],[-49.169279,-26.2192026],[-49.1694211,-26.2187244],[-49.1693137,-26.2182264],[-49.169604,-26.2183888],[-49.1724905,-26.2176561],[-49.1756566,-26.2188058],[-49.1772051,-26.2189636],[-49.177626,-26.2192003],[-49.1777014,-26.2195441],[-49.1790614,-26.2197554],[-49.1804843,-26.2197159],[-49.1813417,-26.2187043],[-49.1811501,-26.2183606],[-49.1815304,-26.2177266],[-49.183528,-26.2170334],[-49.1843312,-26.2172106],[-49.1850597,-26.2171628],[-49.1852818,-26.2169556],[-49.1856993,-26.2169277],[-49.1858548,-26.2166168],[-49.1865389,-26.2166408],[-49.1866943,-26.2171748],[-49.1870763,-26.2171508],[-49.1876449,-26.2174338],[-49.1883112,-26.2172345],[-49.1882757,-26.2175852],[-49.1892085,-26.2179917],[-49.189244,-26.2186253],[-49.1898604,-26.2193474],[-49.1899085,-26.2197488],[-49.1903038,-26.2202788],[-49.1907302,-26.2203585],[-49.1906059,-26.2207331],[-49.1908546,-26.2208845],[-49.1920895,-26.2206095],[-49.1924537,-26.2207131],[-49.1923338,-26.2209044],[-49.1926847,-26.2210758],[-49.1947858,-26.2207211],[-49.1949057,-26.2209721],[-49.1954965,-26.2210837],[-49.1955187,-26.2217572],[-49.196376,-26.2220042],[-49.1970795,-26.2217267],[-49.1972743,-26.2210646],[-49.1983045,-26.2200502],[-49.1988448,-26.2200699],[-49.2001071,-26.2206012],[-49.2008415,-26.2206194],[-49.198,-26.206],[-49.192,-26.2],[-49.181,-26.201],[-49.176,-26.207],[-49.1718241,-26.2009657],[-49.1701669,-26.199899],[-49.1687421,-26.1995293],[-49.1638498,-26.2000068],[-49.1614637,-26.2000684],[-49.1576185,-26.1995909],[-49.1563997,-26.1988054],[-49.1575155,-26.1968492],[-49.1601934,-26.193707],[-49.1606054,-26.192675],[-49.1636438,-26.1905339],[-49.1647939,-26.1876996],[-49.1665964,-26.1867599],[-49.1699094,-26.185697],[-49.171,-26.185],[-49.1718664,-26.1832323],[-49.1718359,-26.1809861],[-49.1706304,-26.1801513],[-49.1706647,-26.1792578],[-49.1715917,-26.1786416],[-49.1731538,-26.1779176],[-49.1750936,-26.1775632],[-49.1768445,-26.1768238],[-49.1775312,-26.1763],[-49.1772394,-26.1742972],[-49.1779088,-26.1694443],[-49.1820974,-26.1690437],[-49.1826295,-26.1684583],[-49.1828012,-26.1675031],[-49.1834192,-26.1667173],[-49.18402,-26.1664092],[-49.1842603,-26.1658853],[-49.1842088,-26.1648839],[-49.1838226,-26.164568],[-49.1828012,-26.1641597],[-49.1818227,-26.1627423],[-49.1778058,-26.1613633],[-49.1776428,-26.1599304],[-49.1779174,-26.1586747],[-49.1788358,-26.1575499],[-49.1797456,-26.1559474],[-49.1811017,-26.1544374],[-49.1822948,-26.152912],[-49.1828269,-26.151841],[-49.1831788,-26.1515945],[-49.1843547,-26.1513249],[-49.1885604,-26.1509782],[-49.1907834,-26.1498533],[-49.1912469,-26.1490982],[-49.1909379,-26.1466559],[-49.1914443,-26.1462937],[-49.191307,-26.1452305],[-49.1906204,-26.1444215],[-49.1896591,-26.1442288],[-49.1879424,-26.1445524],[-49.1875219,-26.1445062],[-49.1868095,-26.1441364],[-49.1855564,-26.1408617],[-49.18505,-26.1402453],[-49.1846122,-26.1401375],[-49.1831445,-26.1406922],[-49.1819858,-26.1418634],[-49.1813592,-26.1420714],[-49.1803636,-26.1419713],[-49.1751966,-26.1394055],[-49.1729049,-26.1372942],[-49.1724157,-26.1350596],[-49.1716518,-26.1340502],[-49.1698751,-26.1329329],[-49.1689395,-26.1327557],[-49.1677379,-26.1327788],[-49.1649913,-26.1350596],[-49.1642017,-26.1351367],[-49.1626911,-26.133819],[-49.1611547,-26.1335571],[-49.1600389,-26.1329406],[-49.160099,-26.1316846],[-49.1605796,-26.1308061],[-49.1611204,-26.1302359],[-49.1612577,-26.1294268],[-49.1609144,-26.1288411],[-49.1600732,-26.1283248],[-49.1590518,-26.1260361],[-49.1590433,-26.1250112],[-49.1601934,-26.1242021],[-49.1604509,-26.1233929],[-49.1599187,-26.1231078],[-49.1595668,-26.1197324],[-49.158554,-26.1192545],[-49.1583566,-26.1186766],[-49.1584081,-26.1172508],[-49.1619272,-26.1155245],[-49.1624422,-26.1149157],[-49.1623048,-26.11312],[-49.1619701,-26.113066],[-49.1614894,-26.1138444],[-49.1603565,-26.114538],[-49.1577816,-26.1142066],[-49.1569061,-26.1149388],[-49.1555585,-26.11517],[-49.1549663,-26.1148926],[-49.1543483,-26.1133666],[-49.153593,-26.112881],[-49.1527347,-26.1131431],[-49.1513957,-26.114777],[-49.1502714,-26.1152239],[-49.1489324,-26.1149619],[-49.1474218,-26.1142837],[-49.1456193,-26.1153627],[-49.1427011,-26.1178905],[-49.1381692,-26.1172585],[-49.1374139,-26.1166112],[-49.1374826,-26.1151777],[-49.1394052,-26.1134976],[-49.1401434,-26.1117404],[-49.1399717,-26.1095978],[-49.1361951,-26.1085805],[-49.1350597,-26.1080818],[-49.1348218,-26.1040639],[-49.1326761,-26.1033702],[-49.131217,-26.0998555],[-49.1289854,-26.0998093],[-49.1260843,-26.0994085],[-49.125226,-26.1025224],[-49.1245222,-26.1031699],[-49.1230116,-26.1026766],[-49.1219987,-26.1014896],[-49.1204881,-26.1011042],[-49.11975,-26.0999943],[-49.1159391,-26.0994239],[-49.1151323,-26.0989922],[-49.1123514,-26.0947837],[-49.1083688,-26.0945216],[-49.1074075,-26.0908987],[-49.1060857,-26.0901895],[-49.1048155,-26.0902666],[-49.1025839,-26.0911916],[-49.1019487,-26.090837],[-49.1000948,-26.0878461],[-49.0988073,-26.0876457],[-49.0964384,-26.0879078],[-49.0942926,-26.0876148],[-49.0910654,-26.0889407],[-49.0893831,-26.0887865],[-49.0883703,-26.0868594],[-49.0877695,-26.086366],[-49.086894,-26.086736],[-49.0861387,-26.0865202],[-49.0849886,-26.0851943],[-49.0836839,-26.0832362],[-49.0818128,-26.0810931],[-49.0784998,-26.081016],[-49.0774355,-26.0805072],[-49.0767832,-26.0795513],[-49.0752382,-26.0786725],[-49.0744486,-26.0780095],[-49.074,-26.077],[-49.0741428,-26.0742386],[-49.0719456,-26.0743465],[-49.069405,-26.07521],[-49.0670189,-26.0753796],[-49.0660748,-26.0758884],[-49.0629355,-26.0762006],[-49.062294,-26.0761169],[-49.0612582,-26.07681],[-49.0601642,-26.0771836],[-49.0586671,-26.0770028],[-49.0573898,-26.0763758],[-49.0550824,-26.0771353],[-49.0534388,-26.07734],[-49.0528374,-26.077605],[-49.0518932,-26.0788337],[-49.0510148,-26.0812356],[-49.0503764,-26.081703],[-49.0491149,-26.0838788],[-49.0497904,-26.0853514],[-49.0499331,-26.0865021],[-49.0491708,-26.087322],[-49.0464025,-26.0876989],[-49.0460398,-26.0881754],[-49.0451568,-26.0944403],[-49.0448055,-26.0954712],[-49.0450308,-26.0962878],[-49.04535,-26.0966684],[-49.046683,-26.0975259],[-49.0472704,-26.0981811],[-49.0475199,-26.0987568],[-49.0471926,-26.103709],[-49.047316,-26.1050795],[-49.0483714,-26.1062596],[-49.0480885,-26.1073628],[-49.0467474,-26.110359],[-49.0459615,-26.1114308],[-49.044682,-26.1118956],[-49.043,-26.113],[-49.0427733,-26.1134764],[-49.0417457,-26.1141802],[-49.0070763,-26.1190917],[-48.9742543,-26.1254865],[-48.9385983,-26.1246],[-48.8835187,-26.124],[-48.8290698,-26.123898],[-48.8292145,-26.1235155],[-48.8282661,-26.1232413],[-48.828542,-26.1227586],[-48.8285399,-26.1224264],[-48.8278769,-26.1217223],[-48.8258658,-26.1212244],[-48.8239454,-26.1203542],[-48.82269,-26.1202225],[-48.8223415,-26.1204022],[-48.8223038,-26.1214748],[-48.8213811,-26.1235941],[-48.8211397,-26.125485],[-48.8205872,-26.1264839],[-48.8186482,-26.1274478],[-48.8178255,-26.1287545],[-48.8173674,-26.1289493],[-48.8167967,-26.1288988],[-48.815551,-26.1284009],[-48.8144878,-26.1282784],[-48.8123474,-26.1286031],[-48.8103304,-26.1300864],[-48.8089088,-26.1306095],[-48.8024715,-26.1298389],[-48.7975706,-26.1309899],[-48.7936731,-26.1326258],[-48.7918988,-26.1384907],[-48.7859374,-26.1477828],[-48.7763419,-26.1669622],[-48.7553636,-26.1963992],[-48.7547587,-26.2007412],[-48.7560491,-26.2035272],[-48.7599408,-26.2053814],[-48.7620396,-26.2072064],[-48.7634287,-26.2098589],[-48.7632271,-26.2161901],[-48.749,-26.251],[-48.745,-26.256],[-48.74,-26.286],[-48.721,-26.305]]]}}]}