{"type":"FeatureCollection","features":[{"type":"Feature","properties":{"osmId":"way/93478095","natural":"wood"},"geometry":{"type":"Polygon","coordinates":[[[-48.8620938,-26.2865738],[-48.8623286,-26.2873571],[-48.8624068,-26.2877897],[-48.8626676,-26.2877546],[-48.8627279,-26.2882381],[-48.8624459,-26.2884561],[-48.8623155,-26.2889939],[-48.8623286,-26.2895785],[-48.8619504,-26.2901514],[-48.8614362,-26.2908289],[-48.8612332,-26.2912971],[-48.8608289,-26.2916713],[-48.8594336,-26.2918232],[-48.8593554,-26.2910165],[-48.8587154,-26.2910967],[-48.8583902,-26.2906329],[-48.8577384,-26.2901981],[-48.8576602,-26.2896603],[-48.857921,-26.2896837],[-48.8581687,-26.2899526],[-48.8590294,-26.2900345],[-48.8589511,-26.2894499],[-48.8589055,-26.2890192],[-48.858573,-26.2890875],[-48.8582991,-26.289029],[-48.8582991,-26.2885146],[-48.8584225,-26.2878253],[-48.8579504,-26.2876355],[-48.8580383,-26.2874857],[-48.8585208,-26.2875676],[-48.8587686,-26.2873103],[-48.8589228,-26.2867697],[-48.8595836,-26.2867019],[-48.8600217,-26.2872844],[-48.8603905,-26.287314],[-48.8603728,-26.2868931],[-48.8603334,-26.2866439],[-48.8606985,-26.2865855],[-48.8608289,-26.2861295],[-48.8610897,-26.2861529],[-48.8609724,-26.2864568],[-48.8613897,-26.2864685],[-48.8613897,-26.2867608],[-48.8610767,-26.2867959],[-48.8611289,-26.286983],[-48.861494,-26.2869128],[-48.861807,-26.2865738],[-48.8620938,-26.2865738]]]}},{"type":"Feature","properties":{"osmId":"way/119531394","natural":"wood"},"geometry":{"type":"Polygon","coordinates":[[[-48.8581527,-26.2806393],[-48.858301,-26.2812699],[-48.8578725,-26.2815113],[-48.8578889,-26.2817724],[-48.8572681,-26.2820926],[-48.8571472,-26.2818906],[-48.8562703,-26.2818945],[-48.8561637,-26.2814768],[-48.8560208,-26.2810187],[-48.8563669,-26.2808762],[-48.8564528,-26.2810828],[-48.8568007,-26.2810511],[-48.8568059,-26.2815956],[-48.8576801,-26.2815655],[-48.8576692,-26.2809891],[-48.8576273,-26.2809549],[-48.8576336,-26.2807142],[-48.8579174,-26.2806921],[-48.8581527,-26.2806393]]]}},{"type":"Feature","properties":{"osmId":"way/119531398","natural":"wood"},"geometry":{"type":"Polygon","coordinates":[[[-48.8609367,-26.279449],[-48.8609792,-26.2800981],[-48.8610803,-26.2803148],[-48.8612266,-26.2822299],[-48.8616373,-26.282129],[-48.8617386,-26.2823359],[-48.8614207,-26.2824897],[-48.8613757,-26.2828025],[-48.8615529,-26.2832792],[-48.86137,-26.2833372],[-48.8612547,-26.283138],[-48.8610353,-26.2831733],[-48.8609677,-26.2828252],[-48.860813,-26.2828454],[-48.8606808,-26.2830472],[-48.8605711,-26.2830623],[-48.860557,-26.2827243],[-48.8608102,-26.2826739],[-48.8608243,-26.2825301],[-48.860889,-26.2824923],[-48.8609396,-26.2825982],[-48.8610099,-26.2826486],[-48.8611084,-26.2825477],[-48.8608693,-26.2823207],[-48.8604452,-26.2822763],[-48.8599397,-26.28243],[-48.8601595,-26.2830133],[-48.8604232,-26.2831236],[-48.8604188,-26.2831985],[-48.8601243,-26.2833601],[-48.8601507,-26.2837148],[-48.8600209,-26.2837244],[-48.859995,-26.2834132],[-48.8599139,-26.2833823],[-48.8598035,-26.2834181],[-48.8596299,-26.283477],[-48.8595046,-26.2835217],[-48.8581024,-26.2836084],[-48.8580628,-26.2839237],[-48.857487,-26.2839079],[-48.8572496,-26.2840616],[-48.8571441,-26.2838606],[-48.857065,-26.283431],[-48.8568848,-26.2834232],[-48.8569039,-26.282918],[-48.8567251,-26.2827779],[-48.8568189,-26.2824655],[-48.8578856,-26.2818795],[-48.858376,-26.2824088],[-48.8584496,-26.2825325],[-48.858221,-26.2825285],[-48.8578167,-26.2821778],[-48.8570694,-26.2828005],[-48.8576276,-26.2833089],[-48.8600144,-26.2830566],[-48.8597685,-26.2822742],[-48.8600597,-26.2822003],[-48.8603674,-26.2819195],[-48.8603619,-26.281481],[-48.8600762,-26.2813283],[-48.8600817,-26.2811559],[-48.8603234,-26.2811411],[-48.8603454,-26.2809588],[-48.8599883,-26.2809687],[-48.8600157,-26.2806583],[-48.8605739,-26.2806549],[-48.8606074,-26.28057],[-48.8606757,-26.2805331],[-48.8606477,-26.2804236],[-48.8606341,-26.2802645],[-48.8606701,-26.2797603],[-48.8606532,-26.2794874],[-48.8609367,-26.279449]]]}},{"type":"Feature","properties":{"osmId":"way/119694909","natural":"wood"},"geometry":{"type":"Polygon","coordinates":[[[-48.8596649,-26.2953856],[-48.8596952,-26.2961507],[-48.859519,-26.2960816],[-48.8595521,-26.2959483],[-48.8594474,-26.2957829],[-48.8592079,-26.2959088],[-48.8593043,-26.2961112],[-48.8592783,-26.2964303],[-48.8597381,-26.296555],[-48.8597804,-26.2969238],[-48.8596836,-26.2970865],[-48.8593267,-26.2966798],[-48.8587157,-26.296376],[-48.8586007,-26.2965225],[-48.8580076,-26.2962568],[-48.8580442,-26.29617],[-48.8578869,-26.2959096],[-48.8574113,-26.2959314],[-48.8573513,-26.2954325],[-48.8572368,-26.2954349],[-48.8572258,-26.2953436],[-48.8574405,-26.2952844],[-48.8574763,-26.2948623],[-48.8575353,-26.2948372],[-48.8576773,-26.2948253],[-48.8578783,-26.2948155],[-48.8579111,-26.2950364],[-48.8584536,-26.2950178],[-48.8584481,-26.2948549],[-48.8587482,-26.2948969],[-48.858817,-26.2952128],[-48.8596649,-26.2953856]]]}},{"type":"Feature","properties":{"osmId":"way/256256816","leisure":"park","name":"Praça dos Suíços"},"geometry":{"type":"Polygon","coordinates":[[[-48.8552724,-26.2984408],[-48.8555557,-26.2984134],[-48.8555499,-26.2985728],[-48.85533,-26.2985971],[-48.8552864,-26.2985661],[-48.8552724,-26.2984408]]]}},{"type":"Feature","properties":{"osmId":"way/277923227","natural":"wood"},"geometry":{"type":"Polygon","coordinates":[[[-48.8566028,-26.2974347],[-48.8566418,-26.2979925],[-48.8570349,-26.298006],[-48.8570319,-26.2980781],[-48.8572323,-26.2980849],[-48.8572703,-26.2971957],[-48.8565601,-26.2972078],[-48.856453,-26.2966387],[-48.8564384,-26.2965613],[-48.8567511,-26.2965632],[-48.8567634,-26.2967996],[-48.8572049,-26.2967941],[-48.8572111,-26.2969297],[-48.8576056,-26.2969443],[-48.8577098,-26.2970323],[-48.8576628,-26.2977232],[-48.8574134,-26.297714],[-48.8573869,-26.2983371],[-48.8571334,-26.2983115],[-48.8569535,-26.2984342],[-48.8567661,-26.2984141],[-48.8565965,-26.2984086],[-48.8564002,-26.2984434],[-48.8561869,-26.2984856],[-48.8561619,-26.2981789],[-48.8560445,-26.2981894],[-48.8558252,-26.298209],[-48.8558353,-26.298152],[-48.8558865,-26.2981227],[-48.8559805,-26.2980604],[-48.8560365,-26.2980064],[-48.8560306,-26.2978844],[-48.8559968,-26.2978295],[-48.8559478,-26.2977635],[-48.8558967,-26.2976829],[-48.8558681,-26.2975968],[-48.8558844,-26.2975528],[-48.8559099,-26.2975224],[-48.8560118,-26.2974932],[-48.8561583,-26.2974538],[-48.8566028,-26.2974347]]]}},{"type":"Feature","properties":{"osmId":"way/286141880","landuse":"grass"},"geometry":{"type":"Polygon","coordinates":[[[-48.8639047,-26.282881],[-48.8639766,-26.2835611],[-48.8639599,-26.28357],[-48.8639369,-26.2835672],[-48.8638611,-26.2835112],[-48.8638563,-26.2834874],[-48.8638823,-26.2828812],[-48.8638868,-26.2828744],[-48.8638942,-26.2828724],[-48.8639006,-26.2828747],[-48.8639047,-26.282881]]]}},{"type":"Feature","properties":{"osmId":"way/286141881","landuse":"grass"},"geometry":{"type":"Polygon","coordinates":[[[-48.8639961,-26.2836902],[-48.8640611,-26.2838302],[-48.8640715,-26.2838656],[-48.8640566,-26.2838997],[-48.8640222,-26.2839195],[-48.8639815,-26.2839174],[-48.8639499,-26.2838942],[-48.8639395,-26.2838587],[-48.8638962,-26.2837268],[-48.8638974,-26.2836993],[-48.8639151,-26.2836768],[-48.8639435,-26.2836663],[-48.8639737,-26.2836714],[-48.8639961,-26.2836902]]]}},{"type":"Feature","properties":{"osmId":"way/286141882","landuse":"grass"},"geometry":{"type":"Polygon","coordinates":[[[-48.8640523,-26.2840456],[-48.864035,-26.2841545],[-48.8640164,-26.2840433],[-48.8640523,-26.2840456]]]}},{"type":"Feature","properties":{"osmId":"way/286141887","landuse":"grass"},"geometry":{"type":"Polygon","coordinates":[[[-48.8639206,-26.283591],[-48.8639198,-26.2835958],[-48.8638757,-26.283621],[-48.8638672,-26.2836202],[-48.8638643,-26.2836173],[-48.8638599,-26.2835556],[-48.8638628,-26.283551],[-48.8638698,-26.283551],[-48.8639206,-26.283591]]]}},{"type":"Feature","properties":{"osmId":"way/286141889","natural":"wood"},"geometry":{"type":"Polygon","coordinates":[[[-48.8630287,-26.2824928],[-48.8625994,-26.2824595],[-48.8625976,-26.282189],[-48.8619751,-26.2820428],[-48.8620294,-26.2817629],[-48.8619961,-26.2814799],[-48.8622592,-26.2813352],[-48.8623626,-26.2813321],[-48.8623741,-26.2812783],[-48.8624336,-26.2812717],[-48.8625108,-26.2812907],[-48.8625643,-26.2813447],[-48.8627783,-26.2813226],[-48.8628888,-26.2812204],[-48.8630185,-26.2813085],[-48.8631729,-26.2813022],[-48.8632334,-26.2813207],[-48.8634819,-26.2812764],[-48.8635724,-26.2812991],[-48.8635992,-26.281736],[-48.8636277,-26.2820601],[-48.8635971,-26.2821331],[-48.8634445,-26.2822801],[-48.8634523,-26.2825692],[-48.8630287,-26.2824928]]]}},{"type":"Feature","properties":{"osmId":"way/286141891","natural":"wood"},"geometry":{"type":"Polygon","coordinates":[[[-48.8638696,-26.2864412],[-48.8638213,-26.2865253],[-48.8638052,-26.2865638],[-48.8637221,-26.2865301],[-48.8637114,-26.2864869],[-48.8637033,-26.2863931],[-48.8637033,-26.2862969],[-48.8637033,-26.2862031],[-48.8636926,-26.2861093],[-48.8636443,-26.2860203],[-48.8635746,-26.2859506],[-48.8634726,-26.2859097],[-48.8633654,-26.2858977],[-48.8632554,-26.2858953],[-48.8631347,-26.2858953],[-48.8630301,-26.2858977],[-48.8629255,-26.2859145],[-48.8628262,-26.2859506],[-48.8627458,-26.2860083],[-48.8626707,-26.286078],[-48.8626036,-26.2861502],[-48.8625312,-26.2862031],[-48.8624802,-26.2861838],[-48.8624212,-26.2860949],[-48.8624051,-26.2860011],[-48.8624105,-26.2859073],[-48.8625017,-26.2858568],[-48.862609,-26.2858303],[-48.8626921,-26.2857654],[-48.8627163,-26.2856716],[-48.8627028,-26.2855778],[-48.8626465,-26.2854888],[-48.8626304,-26.2853926],[-48.8626224,-26.285294],[-48.8626224,-26.2851954],[-48.8626358,-26.2851113],[-48.8626573,-26.2850151],[-48.862609,-26.2849309],[-48.8625097,-26.2848972],[-48.8624078,-26.2849069],[-48.8623273,-26.2849045],[-48.8623381,-26.2848131],[-48.862389,-26.2847265],[-48.8624454,-26.2846423],[-48.862491,-26.2845509],[-48.8625339,-26.284462],[-48.8625795,-26.284373],[-48.8626143,-26.2842792],[-48.8626385,-26.284183],[-48.8626626,-26.2840579],[-48.8626814,-26.2839617],[-48.8627082,-26.2838295],[-48.8627297,-26.2837309],[-48.8628075,-26.2836587],[-48.8629201,-26.2836683],[-48.8630033,-26.2837333],[-48.8630891,-26.283791],[-48.8631937,-26.2838174],[-48.8632956,-26.2838487],[-48.8633224,-26.2839425],[-48.8633224,-26.2840363],[-48.8633224,-26.2841349],[-48.8633278,-26.2842287],[-48.8633493,-26.2842912],[-48.8634083,-26.2843297],[-48.8635102,-26.2843297],[-48.8636845,-26.2843153],[-48.8637891,-26.2842648],[-48.863816,-26.2841758],[-48.8637757,-26.2840916],[-48.8637167,-26.2839762],[-48.8636872,-26.28388],[-48.8636738,-26.2838054],[-48.8636336,-26.2836275],[-48.8635933,-26.2834952],[-48.8636094,-26.2834711],[-48.8636845,-26.283488],[-48.8637784,-26.2836226],[-48.8638186,-26.2837116],[-48.8638777,-26.2839593],[-48.8639393,-26.2844812],[-48.8639179,-26.2846255],[-48.8638482,-26.2847602],[-48.8638052,-26.2848491],[-48.8637865,-26.2849429],[-48.8637865,-26.285157],[-48.8638267,-26.2856476],[-48.8638428,-26.286054],[-48.8638723,-26.2863137],[-48.8638696,-26.2864412]]]}},{"type":"Feature","properties":{"osmId":"way/406883559","landuse":"grass"},"geometry":{"type":"Polygon","coordinates":[[[-48.8487248,-26.2778145],[-48.8486109,-26.278246],[-48.8485317,-26.278231],[-48.8485639,-26.2780687],[-48.8485981,-26.2779779],[-48.8486518,-26.2778955],[-48.8487248,-26.2778145]]]}},{"type":"Feature","properties":{"osmId":"way/455957889","leisure":"park","name":"Parque das Águas Raul Guenther"},"geometry":{"type":"Polygon","coordinates":[[[-48.8569558,-26.2986623],[-48.8570608,-26.2996634],[-48.8567706,-26.2996502],[-48.8566982,-26.2991999],[-48.8565956,-26.2992091],[-48.8565732,-26.2989662],[-48.8565389,-26.2986118],[-48.856894,-26.2985746],[-48.8569558,-26.2986623]]]}},{"type":"Feature","properties":{"osmId":"way/456079128","leisure":"park","name":"Praça dos Pioneiros"},"geometry":{"type":"Polygon","coordinates":[[[-48.8538506,-26.2843515],[-48.8529059,-26.2843221],[-48.8529252,-26.2842767],[-48.8529595,-26.2842313],[-48.8530474,-26.2841711],[-48.8531249,-26.2841311],[-48.8532223,-26.2841014],[-48.8533066,-26.2840825],[-48.8533913,-26.2840718],[-48.8535183,-26.2840803],[-48.8536345,-26.2841097],[-48.8537001,-26.2841444],[-48.8537746,-26.2842032],[-48.8538283,-26.284262],[-48.8538476,-26.2843101],[-48.8538506,-26.2843515]]]}},{"type":"Feature","properties":{"osmId":"way/456461383","landuse":"forest"},"geometry":{"type":"Polygon","coordinates":[[[-48.8487457,-26.2839473],[-48.8487538,-26.2841236],[-48.8484063,-26.2841365],[-48.8483983,-26.2839601],[-48.8487457,-26.2839473]]]}},{"type":"Feature","properties":{"osmId":"way/473906423","landuse":"grass"},"geometry":{"type":"Polygon","coordinates":[[[-48.8562381,-26.2986505],[-48.8562622,-26.2989524],[-48.8558995,-26.2989676],[-48.8558817,-26.298684],[-48.8562381,-26.2986505]]]}},{"type":"Feature","properties":{"osmId":"way/476441777","landuse":"grass"},"geometry":{"type":"Polygon","coordinates":[[[-48.8495584,-26.2845234],[-48.8492409,-26.2844985],[-48.8493192,-26.2844062],[-48.8495127,-26.2844143],[-48.8495544,-26.2844598],[-48.8495584,-26.2845234]]]}},{"type":"Feature","properties":{"osmId":"way/1054420865","natural":"wood"},"geometry":{"type":"Polygon","coordinates":[[[-48.8565583,-26.2791912],[-48.856319,-26.2798589],[-48.8562884,-26.2800743],[-48.85593,-26.2800498],[-48.8559034,-26.279895],[-48.8561395,-26.2798276],[-48.8561529,-26.279717],[-48.8561107,-26.2792253],[-48.8565583,-26.2791912]]]}}]}