{"type":"FeatureCollection","features":[{"type":"Feature","properties":{"osmId":"relation/5373249","natural":"water"},"geometry":{"type":"Polygon","coordinates":[[[-48.8077012,-26.310435],[-48.8069879,-26.3100521],[-48.8069611,-26.3099652],[-48.8068642,-26.3098754],[-48.8067506,-26.3098574],[-48.8064967,-26.3096687],[-48.8063196,-26.3095878],[-48.8062427,-26.3095878],[-48.8062126,-26.3095009],[-48.8061491,-26.3095069],[-48.8060456,-26.30945],[-48.8059988,-26.309465],[-48.8059286,-26.3094081],[-48.8058751,-26.3094261],[-48.8057949,-26.3093751],[-48.8058685,-26.3091655],[-48.8058384,-26.3091265],[-48.8057849,-26.3091205],[-48.8056914,-26.3089947],[-48.8056914,-26.3089438],[-48.8055454,-26.3087786],[-48.8047858,-26.3079194],[-48.804435,-26.3076079],[-48.8043615,-26.3075809],[-48.8054081,-26.3071613],[-48.8057105,-26.3076499],[-48.8058258,-26.3078412],[-48.805946,-26.307997],[-48.8065909,-26.3087249],[-48.8072726,-26.3093419],[-48.8075934,-26.3095726],[-48.8079275,-26.3097253],[-48.8081414,-26.3098032],[-48.8091138,-26.3101986],[-48.8102231,-26.3104891],[-48.8109248,-26.3106089],[-48.8111353,-26.3106059],[-48.8112022,-26.3106419],[-48.8112957,-26.3106509],[-48.8114528,-26.3106239],[-48.8117168,-26.3106718],[-48.8117836,-26.3106419],[-48.8118571,-26.3106838],[-48.8125087,-26.3106509],[-48.8127392,-26.310582],[-48.8129097,-26.3106269],[-48.8132839,-26.310594],[-48.8139422,-26.3106449],[-48.8143766,-26.3107018],[-48.8146806,-26.3107737],[-48.8151651,-26.3109204],[-48.8152487,-26.3109294],[-48.8153222,-26.3109055],[-48.8153322,-26.3108456],[-48.8152587,-26.3107287],[-48.8152387,-26.3106599],[-48.8152921,-26.3106838],[-48.8154158,-26.3108755],[-48.8154258,-26.3109923],[-48.8155327,-26.3110852],[-48.815653,-26.3111002],[-48.8158,-26.311196],[-48.8161776,-26.3113158],[-48.8165184,-26.3113488],[-48.8170598,-26.3112889],[-48.8173371,-26.3111511],[-48.8176612,-26.3110462],[-48.8178016,-26.3109534],[-48.8178216,-26.3108875],[-48.8180555,-26.3106958],[-48.8183562,-26.3103633],[-48.8183696,-26.3102465],[-48.8184765,-26.3101596],[-48.8185467,-26.3098931],[-48.8187356,-26.3096551],[-48.8188508,-26.3096265],[-48.8189811,-26.3094857],[-48.8190513,-26.3094707],[-48.8192016,-26.309306],[-48.8194957,-26.3090903],[-48.8198231,-26.3089076],[-48.8200504,-26.3088297],[-48.8201673,-26.3088147],[-48.8203511,-26.3087578],[-48.8205282,-26.3087129],[-48.8207788,-26.3086919],[-48.820869,-26.308644],[-48.8213134,-26.308629],[-48.822068,-26.3086452],[-48.8221672,-26.3086473],[-48.8222159,-26.3086589],[-48.8225097,-26.3087339],[-48.8228806,-26.3088657],[-48.8232248,-26.3090184],[-48.8233856,-26.3091866],[-48.8235255,-26.3093329],[-48.8236613,-26.3096398],[-48.8237198,-26.3100459],[-48.8236868,-26.3103299],[-48.8238372,-26.3107986],[-48.8240611,-26.311191],[-48.8247577,-26.3117511],[-48.8249866,-26.3118312],[-48.8256103,-26.3121467],[-48.8261089,-26.3123966],[-48.826546,-26.312691],[-48.826624,-26.3127588],[-48.8267114,-26.3128012],[-48.8267518,-26.3128255],[-48.826891,-26.3129092],[-48.8273612,-26.3132608],[-48.8276258,-26.3134281],[-48.8278361,-26.3136081],[-48.8280605,-26.3136695],[-48.828148,-26.3136928],[-48.8287481,-26.3140105],[-48.8296932,-26.3142329],[-48.8301469,-26.3143113],[-48.8304257,-26.3142943],[-48.8306978,-26.3141876],[-48.8307067,-26.3141221],[-48.8308274,-26.3139067],[-48.8309541,-26.3132476],[-48.8312621,-26.3124708],[-48.8312727,-26.3124243],[-48.8312975,-26.3123945],[-48.8314115,-26.312305],[-48.8314705,-26.312305],[-48.8316289,-26.3122753],[-48.831669,-26.3122795],[-48.8317118,-26.312244],[-48.8317305,-26.3121948],[-48.8317635,-26.3121631],[-48.8318084,-26.3121758],[-48.8318628,-26.3121673],[-48.8319289,-26.3121228],[-48.8319927,-26.3121419],[-48.8321014,-26.3120635],[-48.8322881,-26.311947],[-48.8325621,-26.3118199],[-48.8327559,-26.3117416],[-48.8327795,-26.3116717],[-48.832874,-26.3116251],[-48.8332143,-26.3113497],[-48.8334671,-26.3112184],[-48.8339326,-26.3109876],[-48.8345634,-26.3106508],[-48.835069,-26.3102569],[-48.8351447,-26.3101425],[-48.8351801,-26.3101107],[-48.835199,-26.3100069],[-48.8352959,-26.3098417],[-48.8353502,-26.3097697],[-48.835414,-26.3096659],[-48.8354093,-26.309452],[-48.835362,-26.3090962],[-48.8354069,-26.308859],[-48.8356155,-26.3083646],[-48.835785,-26.3082807],[-48.8359267,-26.3082172],[-48.8360543,-26.3081049],[-48.836241,-26.3079906],[-48.8362882,-26.3079143],[-48.8363001,-26.307855],[-48.8363284,-26.3078338],[-48.8363497,-26.3078593],[-48.8367868,-26.3075288],[-48.8371577,-26.3073064],[-48.8376303,-26.3069231],[-48.8380367,-26.3066562],[-48.838169,-26.3064995],[-48.8383179,-26.3062792],[-48.8384398,-26.3061492],[-48.839524,-26.3053854],[-48.8401671,-26.3049745],[-48.8404086,-26.3047747],[-48.8405387,-26.3045692],[-48.8405924,-26.3044138],[-48.8406378,-26.3041806],[-48.8407245,-26.3037901],[-48.8408422,-26.3035495],[-48.8409495,-26.3033441],[-48.8410011,-26.3031386],[-48.8410053,-26.3029018],[-48.8409991,-26.3026427],[-48.8410404,-26.3020412],[-48.8411045,-26.3019424],[-48.8410738,-26.3016123],[-48.8411058,-26.3015259],[-48.8412138,-26.3014239],[-48.8413947,-26.3012827],[-48.841669,-26.3010708],[-48.8417753,-26.3008586],[-48.8418868,-26.3005032],[-48.8419776,-26.3001146],[-48.8420148,-26.2998832],[-48.8420808,-26.2977308],[-48.8421139,-26.2957726],[-48.8421325,-26.2957078],[-48.842175,-26.2956393],[-48.8422304,-26.295542],[-48.8424568,-26.2951924],[-48.8426224,-26.2948319],[-48.8426749,-26.2945597],[-48.84271,-26.2940767],[-48.842732,-26.2926269],[-48.8427856,-26.2915142],[-48.8428187,-26.2890672],[-48.8428827,-26.2882713],[-48.842893,-26.2881196],[-48.8428847,-26.2880307],[-48.8428352,-26.28794],[-48.8428434,-26.2876439],[-48.8428517,-26.2874927],[-48.8428827,-26.2867536],[-48.842926,-26.2865185],[-48.8429363,-26.2862927],[-48.8429012,-26.2861575],[-48.8428749,-26.2860937],[-48.842868,-26.2860373],[-48.8428617,-26.2859864],[-48.8428953,-26.2857063],[-48.8429347,-26.2856461],[-48.8430471,-26.2854995],[-48.8435653,-26.2850087],[-48.8436442,-26.284904],[-48.8448081,-26.2834233],[-48.8458151,-26.281937],[-48.8473051,-26.2797172],[-48.8481609,-26.2782105],[-48.8485038,-26.2773854],[-48.8487715,-26.2767649],[-48.8488726,-26.276454],[-48.8491543,-26.2756061],[-48.849274,-26.2753482],[-48.8494822,-26.2748844],[-48.8495204,-26.2746595],[-48.8495245,-26.274491],[-48.8495389,-26.2740838],[-48.8495276,-26.2739949],[-48.8494399,-26.2736236],[-48.8495856,-26.2738495],[-48.8497028,-26.2738787],[-48.85008,-26.2738315],[-48.850259,-26.2738275],[-48.8507722,-26.2737973],[-48.8508714,-26.2737445],[-48.8510159,-26.2735436],[-48.8510465,-26.2735776],[-48.8510771,-26.2736116],[-48.8509297,-26.2738245],[-48.8508582,-26.2738644],[-48.8504383,-26.2738989],[-48.8502552,-26.2739307],[-48.8500619,-26.2739352],[-48.8498558,-26.2739255],[-48.8497433,-26.2739625],[-48.8496391,-26.2740338],[-48.8496195,-26.2740986],[-48.8496186,-26.2744912],[-48.8496204,-26.2746951],[-48.8495572,-26.2749312],[-48.8494487,-26.2751638],[-48.8494449,-26.2751934],[-48.8494883,-26.2752105],[-48.8494414,-26.2752151],[-48.8494218,-26.2752317],[-48.8493515,-26.2754083],[-48.8492034,-26.2757112],[-48.849169,-26.2758959],[-48.8491725,-26.2759453],[-48.8489428,-26.2766261],[-48.8489131,-26.276706],[-48.8488747,-26.276802],[-48.8485902,-26.2774346],[-48.8485399,-26.2775827],[-48.8482715,-26.2782564],[-48.8473964,-26.2797808],[-48.8459234,-26.2820303],[-48.8449939,-26.283424],[-48.8445152,-26.2840591],[-48.8440664,-26.2846051],[-48.8437084,-26.2850532],[-48.8435303,-26.285243],[-48.8431633,-26.2856017],[-48.8430758,-26.2857414],[-48.8430485,-26.2861047],[-48.8430836,-26.2862231],[-48.8430253,-26.2874841],[-48.8430072,-26.2883184],[-48.842933,-26.2914453],[-48.8429196,-26.2920142],[-48.8429305,-26.2920462],[-48.8429028,-26.2921647],[-48.8428729,-26.2922109],[-48.8428729,-26.292255],[-48.8428886,-26.2923633],[-48.842901,-26.2924334],[-48.8429238,-26.2926288],[-48.842897,-26.2942422],[-48.8428716,-26.2946474],[-48.842852,-26.294814],[-48.8428127,-26.2949519],[-48.8427787,-26.2950472],[-48.8427467,-26.2950944],[-48.8427725,-26.2951351],[-48.8427209,-26.2951675],[-48.8423846,-26.2956528],[-48.8423354,-26.2957461],[-48.8423007,-26.2958134],[-48.8422877,-26.2959028],[-48.8422892,-26.2960874],[-48.8423242,-26.2964237],[-48.8422476,-26.2983545],[-48.842187,-26.2998839],[-48.8421622,-26.3001352],[-48.8421439,-26.3003308],[-48.8421135,-26.3006545],[-48.8420867,-26.3007998],[-48.8420395,-26.3009699],[-48.8419847,-26.301123],[-48.8419063,-26.3011966],[-48.8417745,-26.3012969],[-48.8414137,-26.3015341],[-48.8412079,-26.301733],[-48.8412132,-26.3018111],[-48.8412141,-26.3018546],[-48.8412134,-26.3023556],[-48.8412393,-26.3024298],[-48.8412747,-26.3025309],[-48.8412981,-26.3027796],[-48.841266,-26.3031905],[-48.8412485,-26.3033161],[-48.8411521,-26.3034888],[-48.8409536,-26.3038762],[-48.8408644,-26.304198],[-48.8408368,-26.3042976],[-48.8407667,-26.304609],[-48.8406412,-26.3048315],[-48.8404105,-26.3050775],[-48.8395814,-26.3056583],[-48.8385683,-26.3063681],[-48.8381288,-26.3068553],[-48.8374295,-26.3075479],[-48.8369049,-26.3079652],[-48.8365009,-26.3082257],[-48.8363473,-26.3083019],[-48.8362812,-26.3083104],[-48.8360803,-26.3085158],[-48.8360354,-26.3085158],[-48.8359362,-26.308626],[-48.8357613,-26.3088124],[-48.8356314,-26.3090962],[-48.8356479,-26.3092932],[-48.8356621,-26.3094541],[-48.8356834,-26.3095346],[-48.8356621,-26.3095833],[-48.8356905,-26.3096109],[-48.8356822,-26.3096797],[-48.8356332,-26.3098932],[-48.8356002,-26.3100369],[-48.8355331,-26.3101899],[-48.8354732,-26.3102626],[-48.8354324,-26.3103681],[-48.8353484,-26.3104993],[-48.8353628,-26.310551],[-48.8353988,-26.3106091],[-48.8353484,-26.3106026],[-48.8353388,-26.3105768],[-48.83531,-26.3105596],[-48.8352908,-26.3105596],[-48.835214,-26.3106586],[-48.8350363,-26.3107898],[-48.8349955,-26.3107877],[-48.8349299,-26.3108776],[-48.8347619,-26.3109897],[-48.8347241,-26.3110066],[-48.8340223,-26.311337],[-48.8337435,-26.3115404],[-48.8327819,-26.3122478],[-48.8328386,-26.3123134],[-48.832841,-26.3123537],[-48.8328079,-26.3123452],[-48.832711,-26.3122817],[-48.832014,-26.3125591],[-48.8317068,-26.3127582],[-48.8316407,-26.3128429],[-48.8314989,-26.3130102],[-48.8313571,-26.3133237],[-48.8313089,-26.3135743],[-48.831366,-26.3136374],[-48.831372,-26.3137204],[-48.8313288,-26.3137939],[-48.8312476,-26.3138663],[-48.8312154,-26.3139337],[-48.8311886,-26.3139615],[-48.8311823,-26.3139951],[-48.8312237,-26.3140891],[-48.8311802,-26.3141732],[-48.8310483,-26.3142599],[-48.8310099,-26.3143318],[-48.8310043,-26.3143877],[-48.8309216,-26.3144719],[-48.8308836,-26.3145106],[-48.8307631,-26.3146217],[-48.8306672,-26.3146622],[-48.83036,-26.3146982],[-48.8300812,-26.3147004],[-48.8297741,-26.3146538],[-48.8295709,-26.3145712],[-48.8294386,-26.3145309],[-48.8292873,-26.3145288],[-48.8292259,-26.3145415],[-48.828855,-26.3145224],[-48.8286778,-26.314478],[-48.8284059,-26.314277],[-48.8282559,-26.3142257],[-48.8281286,-26.3141545],[-48.8277334,-26.3139934],[-48.8275963,-26.3139002],[-48.8275018,-26.3137774],[-48.8273884,-26.3137562],[-48.8271332,-26.3134936],[-48.8269489,-26.3134343],[-48.826793,-26.313447],[-48.8264669,-26.3131505],[-48.8263161,-26.3130787],[-48.826259,-26.3129429],[-48.826155,-26.312909],[-48.8254021,-26.3126024],[-48.8241136,-26.311795],[-48.823934,-26.3116933],[-48.8234048,-26.3107699],[-48.8233291,-26.3106131],[-48.8232819,-26.3103378],[-48.8233481,-26.3101557],[-48.8234331,-26.3098761],[-48.8233433,-26.3095796],[-48.8230551,-26.3092873],[-48.8227054,-26.3091221],[-48.8223462,-26.3089611],[-48.8218028,-26.308923],[-48.8209664,-26.3089907],[-48.8203615,-26.3091432],[-48.8200354,-26.3092576],[-48.8196527,-26.3094694],[-48.8193894,-26.3097123],[-48.8194871,-26.3097804],[-48.8192416,-26.3098083],[-48.8188824,-26.3102446],[-48.8182917,-26.3110918],[-48.8178617,-26.3114307],[-48.8175026,-26.3116721],[-48.8170158,-26.3116594],[-48.8167376,-26.3116435],[-48.8166772,-26.3116727],[-48.8164605,-26.3116716],[-48.8164424,-26.3116826],[-48.8164248,-26.3116698],[-48.8164061,-26.3116695],[-48.8163543,-26.3117106],[-48.8158127,-26.3117761],[-48.8154847,-26.3115789],[-48.8150358,-26.3114561],[-48.8147995,-26.3114519],[-48.8146294,-26.3113841],[-48.8143034,-26.3112951],[-48.8137457,-26.3112358],[-48.813363,-26.3111977],[-48.8129708,-26.3112528],[-48.8127959,-26.3112104],[-48.8123328,-26.3112612],[-48.8121571,-26.3112113],[-48.8118029,-26.3112352],[-48.8115957,-26.3111993],[-48.8110009,-26.3111154],[-48.8103928,-26.3110555],[-48.8099785,-26.3109417],[-48.809103,-26.310732],[-48.8084347,-26.3104445],[-48.8081273,-26.3103606],[-48.8079434,-26.3103897],[-48.8077012,-26.310435]]]}},{"type":"Feature","properties":{"osmId":"way/256256814","natural":"water"},"geometry":{"type":"Polygon","coordinates":[[[-48.8554158,-26.2980667],[-48.8554467,-26.2980944],[-48.8554826,-26.2981251],[-48.8554809,-26.2981733],[-48.8554451,-26.2982024],[-48.8554174,-26.2982141],[-48.8553751,-26.2982229],[-48.8553523,-26.2982258],[-48.855336,-26.2982185],[-48.8553034,-26.2982127],[-48.8552774,-26.2981747],[-48.8552774,-26.2981557],[-48.8552806,-26.2981324],[-48.8552741,-26.2981061],[-48.8552692,-26.298074],[-48.8552644,-26.2980506],[-48.8552774,-26.2980331],[-48.8552888,-26.2980214],[-48.8553279,-26.2980258],[-48.8553539,-26.2980273],[-48.8553865,-26.2980448],[-48.8554158,-26.2980667]]]}},{"type":"Feature","properties":{"osmId":"way/258420033","waterway":"river","name":"Rio Morro Alto"},"geometry":{"type":"LineString","coordinates":[[-48.8639115,-26.2912722],[-48.8634467,-26.2912295],[-48.8631024,-26.2912008],[-48.8627351,-26.2912191],[-48.8613652,-26.2916268],[-48.8604907,-26.292842],[-48.8595055,-26.293004],[-48.8591061,-26.2929674],[-48.8586252,-26.2929569],[-48.8581734,-26.2928994],[-48.8559115,-26.2932183],[-48.8555853,-26.2930243]]}},{"type":"Feature","properties":{"osmId":"way/359633950","waterway":"river","name":"Rio Francisco Ross"},"geometry":{"type":"LineString","coordinates":[[-48.8643207,-26.2910134],[-48.8640927,-26.2910736],[-48.8639835,-26.2911457],[-48.86394,-26.2912051],[-48.8639115,-26.2912722]]}},{"type":"Feature","properties":{"osmId":"way/359633962","waterway":"river","name":"Rio Morro Alto"},"geometry":{"type":"LineString","coordinates":[[-48.8490008,-26.290524],[-48.8486858,-26.2903045],[-48.8485707,-26.2903026],[-48.8484049,-26.2902965],[-48.8477443,-26.2903207],[-48.8471619,-26.290637],[-48.8465634,-26.2909429],[-48.8459257,-26.2912087],[-48.8455351,-26.2914295],[-48.8447408,-26.2918461],[-48.8443952,-26.2919744],[-48.8438923,-26.2920215],[-48.8433842,-26.2920642],[-48.8428287,-26.2920902]]}},{"type":"Feature","properties":{"osmId":"way/359633963","waterway":"river","name":"Rio Morro Alto"},"geometry":{"type":"LineString","coordinates":[[-48.8642751,-26.2914367],[-48.8641196,-26.2913405],[-48.8639115,-26.2912722]]}},{"type":"Feature","properties":{"osmId":"way/359633964","waterway":"river","name":"Rio Morro Alto"},"geometry":{"type":"LineString","coordinates":[[-48.8555853,-26.2930243],[-48.8552352,-26.2930159]]}},{"type":"Feature","properties":{"osmId":"way/359633965","waterway":"river","name":"Rio Morro Alto"},"geometry":{"type":"LineString","coordinates":[[-48.8552352,-26.2930159],[-48.854752,-26.2930027],[-48.8542431,-26.2933643]]}},{"type":"Feature","properties":{"osmId":"way/359633966","waterway":"river","name":"Rio Morro Alto"},"geometry":{"type":"LineString","coordinates":[[-48.8500627,-26.2912988],[-48.8494379,-26.2908727],[-48.8493927,-26.29083],[-48.8490008,-26.290524]]}},{"type":"Feature","properties":{"osmId":"way/359633967","waterway":"river","name":"Rio Morro Alto"},"geometry":{"type":"LineString","coordinates":[[-48.8542431,-26.2933643],[-48.8539323,-26.2934002],[-48.8518189,-26.2935255],[-48.8516464,-26.2934295]]}},{"type":"Feature","properties":{"osmId":"way/359633968","waterway":"river","name":"Rio Morro Alto"},"geometry":{"type":"LineString","coordinates":[[-48.8516464,-26.2934295],[-48.8514248,-26.2932352],[-48.8511823,-26.2929605],[-48.8510755,-26.2926214],[-48.8509435,-26.2922982],[-48.8508052,-26.2919229]]}},{"type":"Feature","properties":{"osmId":"way/437610954","waterway":"river","name":"Rio Francisco Ross"},"geometry":{"type":"LineString","coordinates":[[-48.8648805,-26.2908323],[-48.8643207,-26.2910134]]}},{"type":"Feature","properties":{"osmId":"way/437610955","waterway":"river","name":"Rio Morro Alto"},"geometry":{"type":"LineString","coordinates":[[-48.8658037,-26.2922821],[-48.8642751,-26.2914367]]}},{"type":"Feature","properties":{"osmId":"way/1513898726","waterway":"river","name":"Rio Morro Alto"},"geometry":{"type":"LineString","coordinates":[[-48.8508052,-26.2919229],[-48.850738,-26.2917675]]}},{"type":"Feature","properties":{"osmId":"way/1513898727","waterway":"river","name":"Rio Morro Alto"},"geometry":{"type":"LineString","coordinates":[[-48.850738,-26.2917675],[-48.850641,-26.2916247],[-48.8504505,-26.2915081],[-48.8500627,-26.2912988]]}}]}